{"type": "FeatureCollection", "name": "hogst_husuberget", "properties": {"jaktfelt": "Husuberget", "metode": "Sentinel-2 L2A, høst mot høst, dNBR>0.20 & dNDVI>0.08 (kjerne), vekst dNBR>0.12 & dNDVI>0.04, sesongkorrigert, bekreftet i to høstbilder 2026. Oppløsning 10 m – små flater og tynning kan mangle.", "kilde": "Contains modified Copernicus Sentinel data 2024–2026, processed by Sentinel Hub / Copernicus Data Space Ecosystem", "generert": "2026-10-04", "sum_ha_innenfor": {"etter_host_2025": 12, "host_2024_til_host_2025": 3}}, "features": [{"type": "Feature", "geometry": {"type": "Polygon", "coordinates": [[[12.44339, 60.603908], [12.44339, 60.603824], [12.443991, 60.603824], [12.443991, 60.603908], [12.44339, 60.603908]]]}, "properties": {"periode": "etter_host_2025", "areal_ha": 0.03, "andel_innenfor_jaktfelt": 0.0, "jaktfelt": "Husuberget", "grunnlinje": "2025-09-25", "observert": "2026-09-03", "bekreftet": "2026-09-13"}}, {"type": "Feature", "geometry": {"type": "Polygon", "coordinates": [[[12.453346, 60.600242], [12.453346, 60.600158], [12.453861, 60.600158], [12.453861, 60.600242], [12.453346, 60.600242]]]}, "properties": {"periode": "etter_host_2025", "areal_ha": 0.03, "andel_innenfor_jaktfelt": 1.0, "jaktfelt": "Husuberget", "grunnlinje": "2025-09-25", "observert": "2026-09-03", "bekreftet": "2026-09-13"}}, {"type": "Feature", "geometry": {"type": "Polygon", "coordinates": [[[12.454119, 60.600242], [12.454119, 60.600158], [12.454548, 60.600158], [12.454548, 60.600242], [12.454119, 60.600242]]]}, "properties": {"periode": "etter_host_2025", "areal_ha": 0.02, "andel_innenfor_jaktfelt": 1.0, "jaktfelt": "Husuberget", "grunnlinje": "2025-09-25", "observert": "2026-09-03", "bekreftet": "2026-09-13"}}, {"type": "Feature", "geometry": {"type": "Polygon", "coordinates": [[[12.463646, 60.59999], [12.463646, 60.599905], [12.463818, 60.599905], [12.463903, 60.599821], [12.464075, 60.599863], [12.463903, 60.59999], [12.463646, 60.59999]]]}, "properties": {"periode": "etter_host_2025", "areal_ha": 0.02, "andel_innenfor_jaktfelt": 0.27, "jaktfelt": "Husuberget", "grunnlinje": "2025-09-25", "observert": "2026-09-03", "bekreftet": "2026-09-13"}}, {"type": "Feature", "geometry": {"type": "Polygon", "coordinates": [[[12.466307, 60.5994], [12.466307, 60.599315], [12.466393, 60.599315], [12.466393, 60.599273], [12.466564, 60.599273], [12.46665, 60.599189], [12.466993, 60.599147], [12.466993, 60.599231], [12.466908, 60.599231], [12.466822, 60.599315], [12.46665, 60.599315], [12.466564, 60.5994], [12.466307, 60.5994]]]}, "properties": {"periode": "etter_host_2025", "areal_ha": 0.05, "andel_innenfor_jaktfelt": 0.0, "jaktfelt": "Husuberget", "grunnlinje": "2025-09-25", "observert": "2026-09-03", "bekreftet": "2026-09-13"}}, {"type": "Feature", "geometry": {"type": "Polygon", "coordinates": [[[12.467251, 60.599063], [12.467251, 60.598936], [12.467337, 60.598936], [12.467337, 60.598894], [12.467508, 60.598894], [12.467508, 60.598852], [12.46768, 60.59881], [12.46768, 60.598852], [12.467766, 60.598852], [12.467766, 60.598936], [12.46768, 60.598936], [12.467508, 60.599063], [12.467251, 60.599063]]]}, "properties": {"periode": "etter_host_2025", "areal_ha": 0.05, "andel_innenfor_jaktfelt": 0.59, "jaktfelt": "Husuberget", "grunnlinje": "2025-09-25", "observert": "2026-09-03", "bekreftet": "2026-09-13"}}, {"type": "Feature", "geometry": {"type": "Polygon", "coordinates": [[[12.470942, 60.590424], [12.470942, 60.590381], [12.47077, 60.590339], [12.47077, 60.590297], [12.470856, 60.590297], [12.470856, 60.590129], [12.471199, 60.590129], [12.471199, 60.590171], [12.471285, 60.590171], [12.471285, 60.590339], [12.471199, 60.590339], [12.471113, 60.590424], [12.470942, 60.590424]]]}, "properties": {"periode": "etter_host_2025", "areal_ha": 0.07, "andel_innenfor_jaktfelt": 0.0, "jaktfelt": "Husuberget", "grunnlinje": "2025-09-25", "observert": "2026-09-03", "bekreftet": "2026-09-13"}}, {"type": "Feature", "geometry": {"type": "Polygon", "coordinates": [[[12.470856, 60.590044], [12.470856, 60.589496], [12.47077, 60.589496], [12.47077, 60.589412], [12.470856, 60.589412], [12.470856, 60.58937], [12.471027, 60.58937], [12.471027, 60.589412], [12.471199, 60.589454], [12.471199, 60.58996], [12.471113, 60.58996], [12.471027, 60.590044], [12.470856, 60.590044]]]}, "properties": {"periode": "etter_host_2025", "areal_ha": 0.13, "andel_innenfor_jaktfelt": 0.0, "jaktfelt": "Husuberget", "grunnlinje": "2025-09-25", "observert": "2026-09-03", "bekreftet": "2026-09-13"}}, {"type": "Feature", "geometry": {"type": "Polygon", "coordinates": [[[12.488108, 60.565125], [12.488108, 60.565083], [12.487936, 60.565041], [12.487936, 60.564957], [12.488022, 60.564957], [12.488022, 60.564788], [12.488108, 60.564788], [12.488108, 60.564746], [12.488279, 60.564788], [12.488279, 60.564872], [12.488365, 60.564872], [12.488365, 60.564915], [12.48888, 60.564915], [12.48888, 60.564999], [12.488708, 60.564999], [12.488537, 60.565125], [12.488108, 60.565125]]]}, "properties": {"periode": "etter_host_2025", "areal_ha": 0.12, "andel_innenfor_jaktfelt": 0.0, "jaktfelt": "Husuberget", "grunnlinje": "2025-09-25", "observert": "2026-09-03", "bekreftet": "2026-09-13"}}, {"type": "Feature", "geometry": {"type": "Polygon", "coordinates": [[[12.487421, 60.564872], [12.487335, 60.564788], [12.486563, 60.564788], [12.486563, 60.564704], [12.486649, 60.564704], [12.486649, 60.564661], [12.48682, 60.564661], [12.48682, 60.564619], [12.487764, 60.564577], [12.487764, 60.564619], [12.48785, 60.564619], [12.48785, 60.564788], [12.487936, 60.564788], [12.487936, 60.56483], [12.48785, 60.56483], [12.48785, 60.564872], [12.487421, 60.564872]]]}, "properties": {"periode": "etter_host_2025", "areal_ha": 0.16, "andel_innenfor_jaktfelt": 0.0, "jaktfelt": "Husuberget", "grunnlinje": "2025-09-25", "observert": "2026-09-03", "bekreftet": "2026-09-13"}}, {"type": "Feature", "geometry": {"type": "Polygon", "coordinates": [[[12.484503, 60.565252], [12.484503, 60.56521], [12.484417, 60.56521], [12.484417, 60.565125], [12.484331, 60.565125], [12.484331, 60.564999], [12.484245, 60.564999], [12.484245, 60.565125], [12.484159, 60.565125], [12.484074, 60.56521], [12.483902, 60.565168], [12.483902, 60.565083], [12.483816, 60.565083], [12.483816, 60.565041], [12.483644, 60.565041], [12.483644, 60.564999], [12.483559, 60.564999], [12.483559, 60.56483], [12.483473, 60.56483], [12.483473, 60.564746], [12.48313, 60.564661], [12.48313, 60.564408], [12.483044, 60.564408], [12.483044, 60.564366], [12.482786, 60.564366], [12.482786, 60.564324], [12.4827, 60.564324], [12.4827, 60.56424], [12.482271, 60.56424], [12.482271, 60.564197], [12.481928, 60.564071], [12.481928, 60.56386], [12.482443, 60.56386], [12.482443, 60.563776], [12.482529, 60.563776], [12.482615, 60.563607], [12.482872, 60.563607], [12.483044, 60.563438], [12.483215, 60.563438], [12.483215, 60.56348], [12.483301, 60.56348], [12.483473, 60.563607], [12.483644, 60.563607], [12.483902, 60.563776], [12.484074, 60.563776], [12.484074, 60.563733], [12.484159, 60.563733], [12.484074, 60.563523], [12.484159, 60.563523], [12.484245, 60.563438], [12.484589, 60.563438], [12.484589, 60.56348], [12.48476, 60.563523], [12.48476, 60.563607], [12.484846, 60.563607], [12.484846, 60.563733], [12.485018, 60.563733], [12.485018, 60.563691], [12.485104, 60.563691], [12.485104, 60.563733], [12.485533, 60.563733], [12.485533, 60.563776], [12.485619, 60.563776], [12.485619, 60.56386], [12.485962, 60.563944], [12.485962, 60.563987], [12.485876, 60.563987], [12.485876, 60.564113], [12.485962, 60.564113], [12.485962, 60.564155], [12.486134, 60.564113], [12.486048, 60.563902], [12.486134, 60.563902], [12.486134, 60.56386], [12.486305, 60.56386], [12.486305, 60.564155], [12.486219, 60.564155], [12.486219, 60.564197], [12.486134, 60.564197], [12.486134, 60.564155], [12.485962, 60.564197], [12.485962, 60.564451], [12.485876, 60.564451], [12.485876, 60.564493], [12.485619, 60.564493], [12.485619, 60.564282], [12.485189, 60.564324], [12.485189, 60.564282], [12.485018, 60.564282], [12.48476, 60.564113], [12.484245, 60.564155], [12.484074, 60.563987], [12.483644, 60.563987], [12.483644, 60.564029], [12.483473, 60.564071], [12.483473, 60.56424], [12.48373, 60.564324], [12.48373, 60.564408], [12.483816, 60.564408], [12.483902, 60.564493], [12.484245, 60.564493], [12.484331, 60.564577], [12.484503, 60.564577], [12.484503, 60.564619], [12.48476, 60.564704], [12.48476, 60.56483], [12.484932, 60.564872], [12.484932, 60.564999], [12.485018, 60.564999], [12.484932, 60.56521], [12.484589, 60.56521], [12.484589, 60.565252], [12.484503, 60.565252]]]}, "properties": {"periode": "etter_host_2025", "areal_ha": 2.0, "andel_innenfor_jaktfelt": 0.98, "jaktfelt": "Husuberget", "grunnlinje": "2025-09-25", "observert": "2026-09-03", "bekreftet": "2026-09-13"}}, {"type": "Feature", "geometry": {"type": "Polygon", "coordinates": [[[12.48373, 60.563269], [12.483816, 60.563016], [12.483988, 60.562974], [12.483988, 60.563016], [12.484074, 60.563016], [12.484074, 60.563227], [12.483988, 60.563227], [12.483988, 60.563269], [12.48373, 60.563269]]]}, "properties": {"periode": "etter_host_2025", "areal_ha": 0.05, "andel_innenfor_jaktfelt": 1.0, "jaktfelt": "Husuberget", "grunnlinje": "2025-09-25", "observert": "2026-09-03", "bekreftet": "2026-09-13"}}, {"type": "Feature", "geometry": {"type": "Polygon", "coordinates": [[[12.486906, 60.562679], [12.486906, 60.562637], [12.486563, 60.562637], [12.486563, 60.562215], [12.486477, 60.562215], [12.486477, 60.56213], [12.486563, 60.56213], [12.486563, 60.562088], [12.486649, 60.562088], [12.486649, 60.56213], [12.48682, 60.56213], [12.48682, 60.562088], [12.487164, 60.562088], [12.487249, 60.562173], [12.487593, 60.56213], [12.487593, 60.562173], [12.48785, 60.562173], [12.48785, 60.562215], [12.488022, 60.562257], [12.488022, 60.562552], [12.487936, 60.562552], [12.487936, 60.562595], [12.487764, 60.562595], [12.487679, 60.562679], [12.487335, 60.562679], [12.487335, 60.562637], [12.486906, 60.562679]]]}, "properties": {"periode": "etter_host_2025", "areal_ha": 0.45, "andel_innenfor_jaktfelt": 0.0, "jaktfelt": "Husuberget", "grunnlinje": "2025-09-25", "observert": "2026-09-03", "bekreftet": "2026-09-13"}}, {"type": "Feature", "geometry": {"type": "Polygon", "coordinates": [[[12.484846, 60.56213], [12.484846, 60.562046], [12.485018, 60.562004], [12.485018, 60.56192], [12.485189, 60.56192], [12.485189, 60.562088], [12.485104, 60.562088], [12.485104, 60.56213], [12.484846, 60.56213]]]}, "properties": {"periode": "etter_host_2025", "areal_ha": 0.03, "andel_innenfor_jaktfelt": 1.0, "jaktfelt": "Husuberget", "grunnlinje": "2025-09-25", "observert": "2026-09-03", "bekreftet": "2026-09-13"}}, {"type": "Feature", "geometry": {"type": "Polygon", "coordinates": [[[12.482014, 60.562763], [12.482014, 60.562721], [12.481842, 60.562679], [12.481842, 60.562552], [12.481756, 60.562552], [12.481756, 60.56251], [12.481585, 60.56251], [12.481413, 60.562384], [12.481499, 60.562384], [12.481499, 60.562341], [12.481756, 60.562341], [12.481756, 60.56213], [12.481928, 60.562088], [12.481928, 60.56192], [12.482014, 60.56192], [12.482014, 60.561877], [12.482271, 60.561877], [12.482271, 60.56192], [12.482615, 60.562046], [12.482615, 60.56213], [12.482872, 60.562215], [12.482872, 60.562341], [12.482786, 60.562341], [12.482786, 60.562384], [12.482615, 60.562426], [12.482615, 60.56251], [12.482529, 60.56251], [12.482443, 60.562595], [12.482271, 60.562595], [12.482271, 60.562679], [12.482014, 60.562763]]]}, "properties": {"periode": "etter_host_2025", "areal_ha": 0.41, "andel_innenfor_jaktfelt": 1.0, "jaktfelt": "Husuberget", "grunnlinje": "2025-09-25", "observert": "2026-09-03", "bekreftet": "2026-09-13"}}, {"type": "Feature", "geometry": {"type": "Polygon", "coordinates": [[[12.476006, 60.562004], [12.476006, 60.561962], [12.47592, 60.561962], [12.47592, 60.561835], [12.476177, 60.561751], [12.476177, 60.561793], [12.476263, 60.561793], [12.476263, 60.56192], [12.476006, 60.562004]]]}, "properties": {"periode": "etter_host_2025", "areal_ha": 0.04, "andel_innenfor_jaktfelt": 1.0, "jaktfelt": "Husuberget", "grunnlinje": "2025-09-25", "observert": "2026-09-03", "bekreftet": "2026-09-13"}}, {"type": "Feature", "geometry": {"type": "Polygon", "coordinates": [[[12.481585, 60.561835], [12.481585, 60.561793], [12.481499, 60.561793], [12.481499, 60.561709], [12.481585, 60.561709], [12.481585, 60.561666], [12.481756, 60.561666], [12.481756, 60.561835], [12.481585, 60.561835]]]}, "properties": {"periode": "etter_host_2025", "areal_ha": 0.02, "andel_innenfor_jaktfelt": 1.0, "jaktfelt": "Husuberget", "grunnlinje": "2025-09-25", "observert": "2026-09-03", "bekreftet": "2026-09-13"}}, {"type": "Feature", "geometry": {"type": "Polygon", "coordinates": [[[12.48064, 60.56154], [12.48064, 60.561498], [12.480555, 60.561498], [12.480555, 60.561413], [12.48064, 60.561413], [12.48064, 60.561371], [12.480898, 60.561371], [12.480898, 60.561413], [12.480984, 60.561413], [12.480984, 60.561498], [12.480898, 60.561498], [12.480898, 60.56154], [12.48064, 60.56154]]]}, "properties": {"periode": "etter_host_2025", "areal_ha": 0.04, "andel_innenfor_jaktfelt": 1.0, "jaktfelt": "Husuberget", "grunnlinje": "2025-09-25", "observert": "2026-09-03", "bekreftet": "2026-09-13"}}, {"type": "Feature", "geometry": {"type": "Polygon", "coordinates": [[[12.483387, 60.56289], [12.483387, 60.562848], [12.483301, 60.562848], [12.483301, 60.562763], [12.483387, 60.562763], [12.483387, 60.562721], [12.483559, 60.562721], [12.483559, 60.562637], [12.483473, 60.562637], [12.483473, 60.562468], [12.483559, 60.562468], [12.483559, 60.562341], [12.483644, 60.562341], [12.483644, 60.562257], [12.483559, 60.562257], [12.483559, 60.561962], [12.483644, 60.561962], [12.483644, 60.56192], [12.48373, 60.56192], [12.483816, 60.562004], [12.484245, 60.562004], [12.484245, 60.561962], [12.484331, 60.561962], [12.484331, 60.561877], [12.484159, 60.561835], [12.484245, 60.561624], [12.484417, 60.561582], [12.484417, 60.561371], [12.484245, 60.561329], [12.484245, 60.561202], [12.484331, 60.561202], [12.484331, 60.56116], [12.484503, 60.56116], [12.484589, 60.561076], [12.484846, 60.561076], [12.485018, 60.561245], [12.485275, 60.561245], [12.485275, 60.561287], [12.485361, 60.561287], [12.485361, 60.561582], [12.485275, 60.561582], [12.485189, 60.561666], [12.484932, 60.561666], [12.484932, 60.561709], [12.484846, 60.561709], [12.484846, 60.561793], [12.48476, 60.561793], [12.484674, 60.561877], [12.484503, 60.561877], [12.484417, 60.562046], [12.484245, 60.562088], [12.484245, 60.562173], [12.484331, 60.562173], [12.484331, 60.562637], [12.484417, 60.562637], [12.484417, 60.562679], [12.484331, 60.562679], [12.484331, 60.562721], [12.48373, 60.562721], [12.48373, 60.562848], [12.483644, 60.562848], [12.483644, 60.56289], [12.483387, 60.56289]]]}, "properties": {"periode": "etter_host_2025", "areal_ha": 0.78, "andel_innenfor_jaktfelt": 1.0, "jaktfelt": "Husuberget", "grunnlinje": "2025-09-25", "observert": "2026-09-03", "bekreftet": "2026-09-13"}}, {"type": "Feature", "geometry": {"type": "Polygon", "coordinates": [[[12.477036, 60.561793], [12.477036, 60.561751], [12.47695, 60.561751], [12.47695, 60.561666], [12.476778, 60.561666], [12.476778, 60.561624], [12.476349, 60.561666], [12.476349, 60.561624], [12.476263, 60.561624], [12.476263, 60.561498], [12.476177, 60.561498], [12.476177, 60.561329], [12.476263, 60.561329], [12.476263, 60.561287], [12.476435, 60.561287], [12.476435, 60.561245], [12.476521, 60.561245], [12.476692, 60.561118], [12.476864, 60.561118], [12.476864, 60.561076], [12.477551, 60.561076], [12.477722, 60.561245], [12.478666, 60.561245], [12.478666, 60.561287], [12.478752, 60.561287], [12.478752, 60.561371], [12.478838, 60.561371], [12.478838, 60.561413], [12.47901, 60.561413], [12.47901, 60.561456], [12.479095, 60.561456], [12.479095, 60.56154], [12.479181, 60.56154], [12.479181, 60.561709], [12.479095, 60.561709], [12.479095, 60.561751], [12.478495, 60.561709], [12.478323, 60.561582], [12.478151, 60.561582], [12.478151, 60.561624], [12.477379, 60.561624], [12.477379, 60.561666], [12.477293, 60.561666], [12.477293, 60.561793], [12.477036, 60.561793]], [[12.476435, 60.56154], [12.476521, 60.56154], [12.476521, 60.561498], [12.476435, 60.561498], [12.476435, 60.56154]]]}, "properties": {"periode": "etter_host_2025", "areal_ha": 0.81, "andel_innenfor_jaktfelt": 1.0, "jaktfelt": "Husuberget", "grunnlinje": "2025-09-25", "observert": "2026-09-03", "bekreftet": "2026-09-13"}}, {"type": "Feature", "geometry": {"type": "Polygon", "coordinates": [[[12.489223, 60.561329], [12.489138, 60.561245], [12.489309, 60.561202], [12.489309, 60.560823], [12.489395, 60.560823], [12.489395, 60.560781], [12.489653, 60.560781], [12.489738, 60.560865], [12.48991, 60.560865], [12.48991, 60.560907], [12.489996, 60.560907], [12.489996, 60.561076], [12.48991, 60.561076], [12.48991, 60.561118], [12.489738, 60.561118], [12.489738, 60.56116], [12.489653, 60.56116], [12.489653, 60.561245], [12.489567, 60.561245], [12.489481, 60.561329], [12.489223, 60.561329]]]}, "properties": {"periode": "etter_host_2025", "areal_ha": 0.17, "andel_innenfor_jaktfelt": 0.0, "jaktfelt": "Husuberget", "grunnlinje": "2025-09-25", "observert": "2026-09-03", "bekreftet": "2026-09-13"}}, {"type": "Feature", "geometry": {"type": "Polygon", "coordinates": [[[12.476177, 60.560401], [12.476177, 60.560359], [12.476091, 60.560359], [12.476091, 60.560148], [12.476177, 60.560148], [12.476263, 60.560063], [12.476435, 60.560063], [12.476435, 60.560359], [12.476349, 60.560359], [12.476349, 60.560401], [12.476177, 60.560401]]]}, "properties": {"periode": "etter_host_2025", "areal_ha": 0.06, "andel_innenfor_jaktfelt": 1.0, "jaktfelt": "Husuberget", "grunnlinje": "2025-09-25", "observert": "2026-09-03", "bekreftet": "2026-09-13"}}, {"type": "Feature", "geometry": {"type": "Polygon", "coordinates": [[[12.489395, 60.559768], [12.489395, 60.559726], [12.489309, 60.559726], [12.489309, 60.559557], [12.489395, 60.559557], [12.489395, 60.559515], [12.489738, 60.559515], [12.489738, 60.559599], [12.489567, 60.559599], [12.489567, 60.559726], [12.489395, 60.559768]]]}, "properties": {"periode": "etter_host_2025", "areal_ha": 0.04, "andel_innenfor_jaktfelt": 0.0, "jaktfelt": "Husuberget", "grunnlinje": "2025-09-25", "observert": "2026-09-03", "bekreftet": "2026-09-13"}}, {"type": "Feature", "geometry": {"type": "Polygon", "coordinates": [[[12.448282, 60.55922], [12.448282, 60.559177], [12.448196, 60.559177], [12.448196, 60.559093], [12.448282, 60.559093], [12.448282, 60.559051], [12.448711, 60.559009], [12.448711, 60.558882], [12.448111, 60.558882], [12.448111, 60.558798], [12.44854, 60.558798], [12.448626, 60.558713], [12.448797, 60.558713], [12.448797, 60.558671], [12.448969, 60.558671], [12.448969, 60.558629], [12.449141, 60.558629], [12.449141, 60.558671], [12.449398, 60.558671], [12.449398, 60.558629], [12.449913, 60.558671], [12.449913, 60.558629], [12.450085, 60.558629], [12.450171, 60.558545], [12.4506, 60.558545], [12.450771, 60.558671], [12.450943, 60.558671], [12.450943, 60.558713], [12.451115, 60.558756], [12.451115, 60.55884], [12.451029, 60.55884], [12.451029, 60.558882], [12.450943, 60.558882], [12.450943, 60.55884], [12.450771, 60.55884], [12.450771, 60.558967], [12.450686, 60.558967], [12.450686, 60.559009], [12.450171, 60.558967], [12.449999, 60.559093], [12.448797, 60.559093], [12.448797, 60.559135], [12.448454, 60.559135], [12.448454, 60.559177], [12.448282, 60.55922]]]}, "properties": {"periode": "etter_host_2025", "areal_ha": 0.65, "andel_innenfor_jaktfelt": 1.0, "jaktfelt": "Husuberget", "grunnlinje": "2025-09-25", "observert": "2026-09-03", "bekreftet": "2026-09-13"}}, {"type": "Feature", "geometry": {"type": "Polygon", "coordinates": [[[12.484159, 60.560021], [12.484159, 60.559979], [12.484074, 60.559979], [12.484074, 60.559895], [12.48373, 60.55981], [12.48373, 60.559684], [12.483301, 60.559599], [12.483387, 60.559388], [12.483301, 60.559388], [12.483215, 60.559304], [12.482958, 60.559304], [12.482958, 60.55922], [12.48313, 60.55922], [12.48313, 60.559177], [12.483215, 60.559177], [12.483215, 60.559009], [12.482958, 60.559009], [12.483044, 60.558798], [12.482872, 60.558756], [12.482872, 60.558671], [12.482958, 60.558671], [12.483044, 60.558587], [12.483387, 60.558587], [12.483387, 60.558545], [12.48373, 60.558545], [12.48373, 60.558502], [12.483816, 60.558502], [12.483816, 60.558545], [12.483902, 60.558545], [12.483902, 60.558671], [12.483988, 60.558671], [12.484074, 60.558756], [12.484503, 60.558798], [12.484503, 60.558756], [12.484674, 60.558713], [12.484674, 60.558587], [12.48476, 60.558587], [12.48476, 60.558545], [12.485533, 60.558545], [12.485619, 60.558629], [12.485962, 60.558629], [12.486048, 60.558713], [12.486477, 60.558713], [12.486477, 60.55884], [12.486563, 60.55884], [12.486563, 60.559009], [12.486649, 60.559009], [12.486649, 60.559051], [12.486906, 60.559051], [12.486992, 60.559135], [12.487249, 60.559135], [12.487335, 60.55922], [12.487593, 60.55922], [12.487593, 60.559346], [12.487507, 60.559346], [12.487507, 60.559388], [12.486477, 60.559388], [12.486477, 60.559431], [12.486305, 60.559431], [12.486305, 60.559473], [12.486219, 60.559473], [12.486219, 60.559557], [12.486134, 60.559557], [12.486134, 60.559599], [12.485619, 60.559599], [12.485619, 60.559642], [12.485533, 60.559642], [12.485533, 60.559768], [12.485447, 60.559768], [12.485447, 60.55981], [12.485275, 60.55981], [12.485104, 60.559979], [12.484503, 60.559979], [12.484503, 60.560021], [12.484159, 60.560021]]]}, "properties": {"periode": "etter_host_2025", "areal_ha": 2.52, "andel_innenfor_jaktfelt": 1.0, "jaktfelt": "Husuberget", "grunnlinje": "2025-09-25", "observert": "2026-09-03", "bekreftet": "2026-09-13"}}, {"type": "Feature", "geometry": {"type": "Polygon", "coordinates": [[[12.482185, 60.558334], [12.4821, 60.558249], [12.481842, 60.558249], [12.481842, 60.558292], [12.481756, 60.558292], [12.481756, 60.558249], [12.48167, 60.558249], [12.48167, 60.558081], [12.481327, 60.558081], [12.481327, 60.557954], [12.481241, 60.557954], [12.481241, 60.557912], [12.480984, 60.557912], [12.480812, 60.557743], [12.48064, 60.557743], [12.48064, 60.557785], [12.480297, 60.557785], [12.480297, 60.557701], [12.480383, 60.557701], [12.480383, 60.557659], [12.480726, 60.557532], [12.480726, 60.557448], [12.480898, 60.557406], [12.480898, 60.557321], [12.480812, 60.557321], [12.480812, 60.557279], [12.48064, 60.557279], [12.48064, 60.557195], [12.480726, 60.557195], [12.480726, 60.55711], [12.480812, 60.55711], [12.480812, 60.557068], [12.48107, 60.557068], [12.48107, 60.55711], [12.481842, 60.55711], [12.481928, 60.557195], [12.481756, 60.557237], [12.481756, 60.557321], [12.481928, 60.557321], [12.4821, 60.557195], [12.482271, 60.557195], [12.482271, 60.557237], [12.482357, 60.557237], [12.482271, 60.557448], [12.482357, 60.557448], [12.482529, 60.557574], [12.482872, 60.557574], [12.482872, 60.557532], [12.48313, 60.557532], [12.48313, 60.55749], [12.48373, 60.55749], [12.48373, 60.557532], [12.483816, 60.557532], [12.483816, 60.557616], [12.48373, 60.557616], [12.48373, 60.557659], [12.482786, 60.557701], [12.482786, 60.557827], [12.4827, 60.557827], [12.4827, 60.55787], [12.482443, 60.55787], [12.482443, 60.558292], [12.482357, 60.558292], [12.482357, 60.558334], [12.482185, 60.558334]]]}, "properties": {"periode": "etter_host_2025", "areal_ha": 1.17, "andel_innenfor_jaktfelt": 1.0, "jaktfelt": "Husuberget", "grunnlinje": "2025-09-25", "observert": "2026-09-03", "bekreftet": "2026-09-13"}}, {"type": "Feature", "geometry": {"type": "Polygon", "coordinates": [[[12.444077, 60.55652], [12.444077, 60.556435], [12.443905, 60.556393], [12.443905, 60.556224], [12.443991, 60.556224], [12.444077, 60.55614], [12.444248, 60.55614], [12.444248, 60.55652], [12.444077, 60.55652]]]}, "properties": {"periode": "etter_host_2025", "areal_ha": 0.06, "andel_innenfor_jaktfelt": 1.0, "jaktfelt": "Husuberget", "grunnlinje": "2025-09-25", "observert": "2026-09-03", "bekreftet": "2026-09-13"}}, {"type": "Feature", "geometry": {"type": "Polygon", "coordinates": [[[12.443991, 60.556013], [12.443991, 60.555971], [12.443905, 60.555971], [12.443905, 60.555802], [12.444077, 60.555802], [12.444077, 60.555844], [12.444248, 60.555887], [12.444248, 60.556013], [12.443991, 60.556013]]]}, "properties": {"periode": "etter_host_2025", "areal_ha": 0.04, "andel_innenfor_jaktfelt": 1.0, "jaktfelt": "Husuberget", "grunnlinje": "2025-09-25", "observert": "2026-09-03", "bekreftet": "2026-09-13"}}, {"type": "Feature", "geometry": {"type": "Polygon", "coordinates": [[[12.486992, 60.555423], [12.486992, 60.55538], [12.486906, 60.55538], [12.486906, 60.555296], [12.486992, 60.555296], [12.486992, 60.555254], [12.487164, 60.555254], [12.487164, 60.555296], [12.487249, 60.555296], [12.487249, 60.55538], [12.487164, 60.55538], [12.487164, 60.555423], [12.486992, 60.555423]]]}, "properties": {"periode": "etter_host_2025", "areal_ha": 0.03, "andel_innenfor_jaktfelt": 1.0, "jaktfelt": "Husuberget", "grunnlinje": "2025-09-25", "observert": "2026-09-03", "bekreftet": "2026-09-13"}}, {"type": "Feature", "geometry": {"type": "Polygon", "coordinates": [[[12.49197, 60.554579], [12.49197, 60.554536], [12.491884, 60.554536], [12.491884, 60.554452], [12.491627, 60.554368], [12.491627, 60.554283], [12.491884, 60.554199], [12.491884, 60.554115], [12.49197, 60.554115], [12.492056, 60.55403], [12.492228, 60.55403], [12.492228, 60.554072], [12.492571, 60.554072], [12.492571, 60.554115], [12.492828, 60.554115], [12.492914, 60.554199], [12.492828, 60.554199], [12.492828, 60.554241], [12.492743, 60.554241], [12.492743, 60.554326], [12.492399, 60.554452], [12.492399, 60.554536], [12.492313, 60.554536], [12.492313, 60.554579], [12.49197, 60.554579]]]}, "properties": {"periode": "etter_host_2025", "areal_ha": 0.25, "andel_innenfor_jaktfelt": 0.0, "jaktfelt": "Husuberget", "grunnlinje": "2025-09-25", "observert": "2026-09-03", "bekreftet": "2026-09-13"}}, {"type": "Feature", "geometry": {"type": "Polygon", "coordinates": [[[12.47695, 60.552089], [12.47695, 60.552047], [12.476864, 60.552047], [12.476864, 60.551794], [12.476606, 60.551709], [12.476606, 60.551583], [12.476349, 60.551583], [12.476263, 60.551498], [12.47592, 60.551456], [12.47592, 60.551414], [12.475834, 60.551414], [12.475834, 60.551287], [12.47592, 60.551287], [12.47592, 60.551245], [12.476177, 60.551245], [12.476177, 60.551161], [12.476263, 60.551161], [12.476263, 60.551119], [12.476692, 60.551119], [12.476692, 60.551076], [12.47695, 60.550992], [12.47695, 60.550865], [12.477121, 60.550823], [12.477207, 60.550654], [12.477379, 60.550612], [12.477379, 60.550486], [12.477465, 60.550486], [12.477465, 60.550443], [12.477551, 60.550443], [12.477551, 60.550359], [12.477722, 60.550317], [12.477722, 60.550148], [12.477808, 60.550148], [12.477808, 60.550106], [12.478237, 60.550106], [12.478409, 60.550275], [12.478666, 60.550275], [12.478666, 60.55019], [12.478752, 60.55019], [12.478924, 60.550064], [12.479095, 60.550064], [12.479095, 60.550106], [12.479181, 60.550106], [12.479181, 60.55019], [12.47961, 60.550148], [12.479696, 60.550232], [12.479868, 60.550232], [12.479868, 60.550275], [12.479954, 60.550275], [12.479954, 60.550401], [12.480297, 60.550401], [12.480297, 60.550443], [12.480469, 60.550486], [12.480469, 60.55057], [12.480297, 60.55057], [12.480297, 60.550739], [12.480211, 60.550739], [12.480211, 60.550781], [12.479954, 60.550781], [12.479868, 60.550865], [12.479525, 60.550865], [12.479439, 60.55095], [12.479181, 60.55095], [12.47901, 60.551076], [12.478838, 60.551076], [12.478838, 60.551119], [12.478752, 60.551119], [12.478752, 60.551161], [12.478409, 60.551287], [12.478409, 60.551414], [12.478065, 60.551498], [12.478065, 60.551667], [12.47798, 60.551667], [12.47798, 60.551709], [12.477722, 60.551709], [12.477722, 60.551836], [12.47798, 60.551836], [12.47798, 60.55192], [12.477465, 60.55192], [12.477293, 60.552089], [12.47695, 60.552089]]]}, "properties": {"periode": "etter_host_2025", "areal_ha": 2.47, "andel_innenfor_jaktfelt": 0.0, "jaktfelt": "Husuberget", "grunnlinje": "2025-09-25", "observert": "2026-09-03", "bekreftet": "2026-09-13"}}, {"type": "Feature", "geometry": {"type": "Polygon", "coordinates": [[[12.448797, 60.550021], [12.448797, 60.54981], [12.448454, 60.549768], [12.448454, 60.549684], [12.44854, 60.549684], [12.448626, 60.549599], [12.448969, 60.549599], [12.448969, 60.549642], [12.449055, 60.549642], [12.449055, 60.549937], [12.448797, 60.550021]]]}, "properties": {"periode": "etter_host_2025", "areal_ha": 0.09, "andel_innenfor_jaktfelt": 1.0, "jaktfelt": "Husuberget", "grunnlinje": "2025-09-25", "observert": "2026-09-03", "bekreftet": "2026-09-13"}}, {"type": "Feature", "geometry": {"type": "MultiPolygon", "coordinates": [[[[12.488022, 60.555423], [12.488022, 60.55538], [12.487936, 60.55538], [12.487936, 60.555254], [12.488279, 60.555296], [12.488365, 60.555212], [12.488623, 60.555212], [12.488623, 60.555169], [12.488708, 60.555169], [12.488623, 60.554916], [12.488966, 60.55479], [12.488966, 60.554705], [12.489052, 60.554705], [12.489052, 60.554663], [12.489223, 60.554663], [12.489223, 60.554621], [12.489309, 60.554621], [12.489309, 60.554536], [12.489395, 60.554536], [12.489395, 60.554494], [12.489567, 60.554494], [12.489567, 60.554452], [12.489653, 60.554452], [12.489653, 60.55365], [12.489567, 60.55365], [12.489481, 60.553566], [12.489309, 60.553566], [12.489309, 60.553524], [12.489223, 60.553524], [12.489223, 60.553271], [12.488794, 60.553186], [12.488794, 60.552722], [12.488537, 60.552722], [12.488365, 60.552891], [12.487335, 60.552891], [12.487335, 60.552764], [12.487249, 60.552764], [12.487249, 60.552722], [12.486649, 60.552764], [12.486477, 60.552596], [12.486305, 60.552596], [12.486134, 60.552764], [12.485619, 60.552764], [12.485447, 60.552596], [12.485018, 60.552596], [12.485018, 60.552638], [12.484503, 60.552638], [12.484503, 60.55268], [12.484417, 60.55268], [12.484417, 60.552933], [12.484331, 60.552933], [12.484331, 60.552975], [12.484159, 60.552975], [12.484159, 60.553017], [12.482615, 60.553017], [12.482615, 60.55306], [12.482014, 60.55306], [12.482014, 60.553102], [12.481928, 60.553102], [12.481928, 60.553186], [12.482014, 60.553186], [12.482014, 60.553228], [12.482185, 60.553228], [12.482185, 60.553271], [12.482271, 60.553271], [12.482271, 60.553355], [12.482615, 60.553439], [12.482615, 60.553524], [12.4827, 60.553524], [12.4827, 60.553735], [12.482357, 60.553819], [12.482357, 60.554452], [12.482271, 60.554452], [12.482271, 60.554494], [12.4821, 60.554494], [12.481928, 60.554663], [12.481327, 60.554663], [12.481413, 60.554494], [12.481327, 60.554494], [12.481241, 60.55441], [12.480984, 60.55441], [12.480898, 60.554326], [12.48107, 60.554283], [12.48107, 60.554157], [12.481241, 60.554115], [12.481241, 60.55403], [12.481327, 60.55403], [12.481413, 60.553946], [12.481585, 60.553946], [12.481585, 60.553904], [12.48167, 60.553904], [12.48167, 60.553735], [12.481756, 60.553735], [12.481842, 60.55365], [12.482185, 60.55365], [12.482271, 60.553439], [12.482185, 60.553439], [12.482185, 60.553397], [12.481413, 60.553439], [12.481413, 60.553566], [12.481241, 60.553608], [12.481241, 60.553566], [12.48107, 60.553524], [12.48107, 60.553313], [12.480984, 60.553313], [12.480984, 60.553186], [12.481155, 60.553144], [12.481155, 60.552764], [12.480726, 60.552806], [12.48064, 60.552722], [12.480469, 60.552722], [12.480469, 60.55268], [12.480383, 60.55268], [12.480383, 60.552596], [12.480297, 60.552596], [12.480297, 60.552553], [12.480125, 60.552511], [12.480125, 60.552427], [12.479954, 60.552385], [12.479954, 60.552258], [12.479868, 60.552258], [12.479868, 60.552216], [12.479696, 60.552216], [12.479696, 60.552174], [12.47961, 60.552174], [12.47961, 60.552089], [12.479267, 60.552005], [12.479267, 60.551836], [12.479353, 60.551836], [12.479353, 60.551541], [12.479439, 60.551541], [12.479439, 60.551498], [12.479868, 60.551498], [12.479954, 60.551583], [12.480211, 60.551583], [12.480211, 60.551625], [12.480297, 60.551625], [12.480297, 60.551583], [12.480469, 60.551583], [12.480469, 60.551498], [12.480555, 60.551498], [12.480555, 60.551456], [12.480726, 60.551456], [12.480726, 60.551414], [12.480898, 60.551372], [12.480898, 60.551287], [12.480984, 60.551287], [12.480984, 60.551076], [12.480898, 60.551076], [12.480898, 60.55095], [12.480984, 60.55095], [12.480984, 60.550908], [12.481155, 60.550908], [12.481413, 60.550739], [12.4821, 60.550739], [12.4821, 60.550781], [12.482443, 60.550781], [12.482529, 60.550697], [12.4827, 60.550697], [12.482786, 60.550781], [12.483215, 60.550781], [12.483215, 60.550739], [12.483301, 60.550739], [12.483301, 60.550654], [12.483387, 60.550654], [12.483387, 60.55057], [12.483559, 60.55057], [12.483644, 60.550486], [12.483902, 60.550486], [12.483902, 60.550528], [12.483988, 60.550528], [12.483988, 60.550486], [12.484074, 60.550486], [12.484074, 60.550528], [12.484331, 60.550528], [12.484331, 60.550486], [12.484589, 60.550486], [12.48476, 60.550359], [12.485619, 60.550401], [12.485619, 60.550443], [12.48579, 60.550486], [12.48579, 60.55057], [12.485876, 60.55057], [12.485876, 60.550612], [12.486305, 60.550612], [12.486305, 60.55057], [12.486477, 60.550528], [12.486477, 60.550443], [12.486734, 60.550359], [12.486734, 60.550275], [12.486477, 60.55019], [12.486477, 60.550021], [12.486563, 60.550021], [12.486649, 60.549853], [12.486563, 60.549853], [12.486563, 60.54981], [12.486219, 60.549684], [12.486219, 60.549473], [12.486048, 60.549431], [12.486048, 60.54922], [12.485962, 60.54922], [12.485962, 60.549177], [12.485876, 60.549177], [12.485876, 60.549093], [12.48579, 60.549093], [12.48579, 60.548713], [12.485876, 60.548713], [12.485962, 60.548544], [12.486048, 60.548544], [12.486048, 60.548502], [12.486134, 60.548502], [12.486134, 60.54846], [12.486477, 60.548333], [12.486477, 60.548207], [12.486391, 60.548207], [12.486391, 60.548165], [12.486305, 60.548165], [12.486305, 60.54808], [12.486134, 60.548038], [12.486134, 60.547743], [12.486219, 60.547743], [12.486305, 60.547658], [12.48682, 60.547658], [12.48682, 60.5477], [12.486906, 60.5477], [12.486906, 60.547827], [12.487249, 60.547827], [12.487249, 60.547869], [12.487507, 60.547869], [12.487593, 60.547954], [12.487764, 60.547954], [12.48785, 60.548038], [12.488194, 60.548038], [12.488194, 60.548165], [12.488279, 60.548165], [12.488279, 60.548207], [12.488794, 60.548207], [12.488794, 60.548333], [12.48888, 60.548333], [12.489052, 60.54846], [12.489309, 60.54846], [12.489309, 60.548502], [12.489395, 60.548502], [12.489395, 60.548671], [12.489738, 60.548671], [12.489738, 60.548713], [12.489824, 60.548713], [12.489824, 60.54884], [12.489738, 60.54884], [12.489738, 60.548882], [12.489481, 60.548882], [12.489481, 60.548924], [12.488794, 60.548924], [12.488623, 60.548755], [12.487507, 60.548755], [12.487507, 60.548798], [12.487335, 60.548798], [12.487335, 60.54884], [12.487249, 60.54884], [12.487249, 60.548924], [12.487164, 60.548924], [12.487164, 60.548966], [12.486992, 60.548966], [12.486992, 60.549009], [12.486906, 60.549009], [12.486906, 60.549093], [12.486992, 60.549093], [12.486992, 60.549135], [12.487936, 60.549135], [12.488108, 60.549304], [12.488279, 60.549304], [12.488279, 60.549262], [12.488365, 60.549262], [12.488365, 60.549135], [12.488451, 60.549135], [12.488451, 60.549093], [12.488708, 60.549093], [12.488708, 60.549135], [12.488794, 60.549135], [12.488794, 60.549599], [12.488708, 60.549599], [12.488708, 60.549642], [12.488537, 60.549642], [12.488537, 60.549684], [12.488451, 60.549684], [12.488451, 60.549768], [12.488537, 60.549768], [12.488537, 60.54981], [12.488794, 60.54981], [12.488966, 60.549979], [12.489138, 60.549979], [12.489138, 60.549937], [12.489223, 60.549937], [12.489223, 60.549853], [12.489567, 60.549768], [12.489567, 60.549684], [12.489481, 60.549684], [12.489481, 60.549642], [12.489223, 60.549642], [12.489223, 60.549599], [12.489138, 60.549599], [12.489138, 60.549135], [12.489223, 60.549135], [12.489223, 60.549093], [12.489653, 60.549093], [12.489653, 60.549051], [12.489824, 60.549051], [12.489824, 60.549262], [12.48991, 60.549262], [12.48991, 60.549304], [12.490082, 60.549304], [12.490082, 60.549346], [12.490253, 60.549346], [12.490253, 60.549388], [12.490425, 60.549431], [12.490425, 60.549515], [12.490253, 60.549557], [12.490253, 60.549642], [12.490168, 60.549642], [12.490168, 60.549684], [12.490253, 60.549684], [12.490253, 60.549726], [12.490511, 60.549726], [12.490597, 60.54981], [12.490768, 60.54981], [12.490854, 60.549895], [12.491026, 60.549895], [12.491112, 60.549726], [12.491198, 60.549726], [12.491198, 60.549684], [12.491455, 60.549684], [12.491455, 60.549642], [12.491541, 60.549642], [12.491541, 60.549557], [12.491713, 60.549515], [12.491713, 60.549431], [12.492056, 60.549346], [12.492056, 60.549135], [12.492142, 60.549135], [12.492142, 60.549051], [12.492228, 60.549051], [12.492228, 60.549009], [12.493086, 60.549009], [12.493086, 60.549051], [12.493172, 60.549051], [12.493172, 60.549135], [12.493258, 60.549135], [12.493258, 60.549177], [12.493429, 60.549177], [12.493601, 60.548966], [12.493687, 60.548966], [12.493773, 60.549051], [12.493944, 60.549051], [12.493944, 60.549009], [12.494116, 60.548966], [12.494116, 60.549009], [12.494202, 60.549009], [12.494202, 60.54922], [12.494631, 60.549177], [12.494631, 60.549262], [12.494717, 60.549262], [12.494888, 60.549388], [12.495403, 60.549388], [12.495403, 60.549346], [12.495661, 60.549346], [12.495661, 60.549388], [12.495747, 60.549388], [12.495747, 60.549515], [12.49609, 60.549642], [12.49609, 60.54981], [12.496176, 60.54981], [12.496176, 60.549853], [12.49609, 60.549853], [12.49609, 60.549895], [12.496004, 60.549895], [12.496004, 60.549853], [12.495747, 60.549853], [12.495832, 60.550148], [12.496004, 60.55019], [12.495918, 60.550359], [12.496004, 60.550359], [12.49609, 60.550443], [12.496262, 60.550443], [12.496262, 60.550401], [12.496519, 60.550317], [12.496519, 60.550232], [12.496691, 60.55019], [12.496691, 60.550106], [12.496862, 60.550106], [12.496862, 60.551372], [12.496777, 60.551372], [12.496777, 60.551414], [12.496004, 60.551414], [12.496004, 60.551456], [12.495918, 60.551456], [12.495918, 60.551625], [12.495661, 60.551625], [12.495661, 60.551667], [12.495575, 60.551667], [12.495575, 60.551794], [12.495661, 60.551794], [12.495661, 60.55192], [12.495747, 60.55192], [12.495747, 60.551963], [12.495918, 60.551963], [12.495918, 60.55192], [12.496004, 60.55192], [12.496004, 60.551836], [12.496347, 60.551752], [12.496347, 60.551625], [12.496433, 60.551625], [12.496433, 60.551583], [12.496605, 60.551583], [12.496605, 60.551625], [12.496691, 60.551625], [12.496691, 60.551709], [12.496862, 60.551752], [12.496862, 60.552174], [12.496777, 60.552174], [12.496777, 60.552258], [12.496691, 60.552258], [12.496691, 60.5523], [12.496519, 60.5523], [12.496519, 60.552342], [12.496433, 60.552342], [12.496433, 60.552638], [12.496347, 60.552638], [12.496347, 60.55268], [12.496176, 60.55268], [12.496176, 60.552638], [12.496004, 60.552638], [12.496004, 60.55268], [12.495317, 60.55268], [12.495317, 60.552638], [12.495232, 60.552638], [12.495232, 60.552553], [12.49506, 60.552553], [12.49506, 60.552511], [12.494888, 60.552553], [12.494888, 60.552511], [12.494717, 60.552469], [12.494631, 60.552174], [12.494717, 60.552174], [12.494802, 60.552005], [12.494717, 60.552005], [12.494717, 60.551794], [12.494545, 60.551752], [12.494545, 60.551625], [12.494631, 60.551625], [12.494631, 60.551583], [12.494545, 60.551583], [12.494545, 60.551498], [12.494373, 60.551498], [12.494373, 60.551456], [12.494202, 60.551414], [12.494202, 60.55133], [12.494116, 60.55133], [12.494116, 60.551287], [12.493944, 60.551287], [12.493858, 60.551203], [12.493687, 60.551203], [12.493601, 60.551119], [12.493429, 60.551119], [12.493258, 60.55095], [12.493, 60.55095], [12.492914, 60.550865], [12.492743, 60.550865], [12.492743, 60.550908], [12.492142, 60.550908], [12.492142, 60.55095], [12.491884, 60.551034], [12.491884, 60.551119], [12.491798, 60.551119], [12.491713, 60.551203], [12.491283, 60.551203], [12.491112, 60.551034], [12.490253, 60.551034], [12.490253, 60.551076], [12.490168, 60.551076], [12.490168, 60.551203], [12.489996, 60.551245], [12.48991, 60.551161], [12.489996, 60.551161], [12.490168, 60.551034], [12.490082, 60.551034], [12.490082, 60.550823], [12.489996, 60.550823], [12.489996, 60.550739], [12.489653, 60.550654], [12.489653, 60.550232], [12.489567, 60.550232], [12.489481, 60.550148], [12.489223, 60.550148], [12.489223, 60.55019], [12.488279, 60.55019], [12.488279, 60.550232], [12.488194, 60.550232], [12.488194, 60.550528], [12.48785, 60.550612], [12.48785, 60.55095], [12.487936, 60.55095], [12.487936, 60.550992], [12.488108, 60.550992], [12.488108, 60.55095], [12.488194, 60.55095], [12.488194, 60.550781], [12.488279, 60.550781], [12.488279, 60.550739], [12.488966, 60.550739], [12.488966, 60.550865], [12.489309, 60.55095], [12.489309, 60.551034], [12.489567, 60.551119], [12.489567, 60.551203], [12.489481, 60.551203], [12.489309, 60.55133], [12.489138, 60.55133], [12.489138, 60.551287], [12.489052, 60.551287], [12.489052, 60.551119], [12.488966, 60.551119], [12.488966, 60.551076], [12.488623, 60.551076], [12.488623, 60.551034], [12.488451, 60.551034], [12.488451, 60.551076], [12.488279, 60.551119], [12.488194, 60.551583], [12.488108, 60.551583], [12.488108, 60.551625], [12.487936, 60.551625], [12.487936, 60.551667], [12.488108, 60.551667], [12.488108, 60.551709], [12.488194, 60.551709], [12.488194, 60.551794], [12.488279, 60.551794], [12.488365, 60.551878], [12.488708, 60.551836], [12.488708, 60.551878], [12.48888, 60.55192], [12.48888, 60.551963], [12.488794, 60.551963], [12.488794, 60.552131], [12.488966, 60.552131], [12.488966, 60.552174], [12.489138, 60.552216], [12.489138, 60.5523], [12.489223, 60.5523], [12.489223, 60.552342], [12.489395, 60.552342], [12.489481, 60.552427], [12.489567, 60.552427], [12.489567, 60.5523], [12.48991, 60.552174], [12.490082, 60.552342], [12.490168, 60.552342], [12.490168, 60.5523], [12.490339, 60.5523], [12.490339, 60.552174], [12.490425, 60.552174], [12.490425, 60.552131], [12.490768, 60.552131], [12.490768, 60.552089], [12.490854, 60.552089], [12.490854, 60.552131], [12.49094, 60.552131], [12.49094, 60.552216], [12.491283, 60.5523], [12.491283, 60.552596], [12.491369, 60.552596], [12.491369, 60.552764], [12.491283, 60.552764], [12.491283, 60.552806], [12.491112, 60.552806], [12.49094, 60.552975], [12.490511, 60.552975], [12.490511, 60.552933], [12.490339, 60.552891], [12.490339, 60.552806], [12.490253, 60.552806], [12.490253, 60.552764], [12.489653, 60.552722], [12.489738, 60.552933], [12.489567, 60.552975], [12.489567, 60.55306], [12.489653, 60.55306], [12.489653, 60.553102], [12.48991, 60.553102], [12.48991, 60.553144], [12.490253, 60.553144], [12.490339, 60.553228], [12.490511, 60.553228], [12.490511, 60.553271], [12.490683, 60.553313], [12.490683, 60.553397], [12.490597, 60.553397], [12.490597, 60.55365], [12.490339, 60.553735], [12.490339, 60.553904], [12.490168, 60.553946], [12.490168, 60.554072], [12.489996, 60.554115], [12.489996, 60.554241], [12.490082, 60.554241], [12.490082, 60.554536], [12.489996, 60.554536], [12.489996, 60.554579], [12.489824, 60.554579], [12.489824, 60.554621], [12.489738, 60.554621], [12.489738, 60.55479], [12.489395, 60.554874], [12.489395, 60.555212], [12.489309, 60.555212], [12.489309, 60.555254], [12.489052, 60.555254], [12.489052, 60.555338], [12.488966, 60.555338], [12.488966, 60.55538], [12.488022, 60.555423]], [[12.490082, 60.552342], [12.489996, 60.552342], [12.489996, 60.552427], [12.490082, 60.552427], [12.490082, 60.552342]], [[12.486391, 60.550781], [12.486563, 60.550781], [12.486563, 60.550697], [12.486391, 60.550697], [12.486391, 60.550781]]], [[[12.48991, 60.552174], [12.48991, 60.552131], [12.489824, 60.552131], [12.48991, 60.552047], [12.490082, 60.552047], [12.490082, 60.552131], [12.48991, 60.552174]]]]}, "properties": {"periode": "etter_host_2025", "areal_ha": 27.63, "andel_innenfor_jaktfelt": 0.02, "jaktfelt": "Husuberget", "grunnlinje": "2025-09-25", "observert": "2026-09-03", "bekreftet": "2026-09-13"}}, {"type": "Feature", "geometry": {"type": "Polygon", "coordinates": [[[12.405195, 60.549262], [12.405195, 60.549009], [12.405109, 60.549009], [12.405109, 60.548966], [12.404766, 60.548966], [12.404766, 60.548924], [12.404594, 60.548924], [12.404423, 60.548755], [12.404079, 60.548755], [12.404079, 60.548798], [12.403994, 60.548798], [12.404079, 60.549009], [12.403994, 60.549009], [12.403994, 60.549051], [12.403736, 60.549051], [12.40365, 60.549135], [12.403479, 60.549135], [12.403479, 60.549093], [12.403393, 60.549093], [12.403393, 60.549009], [12.403049, 60.548924], [12.402964, 60.548755], [12.402792, 60.548755], [12.402792, 60.548713], [12.402706, 60.548713], [12.402706, 60.548249], [12.402792, 60.548249], [12.402878, 60.548165], [12.403307, 60.548165], [12.403307, 60.548122], [12.403479, 60.548122], [12.403479, 60.54808], [12.404251, 60.54808], [12.404251, 60.548122], [12.404423, 60.548122], [12.40468, 60.547954], [12.405109, 60.547954], [12.405109, 60.547911], [12.405281, 60.547911], [12.405539, 60.547743], [12.40571, 60.547743], [12.40571, 60.5477], [12.406054, 60.547574], [12.406054, 60.547616], [12.406139, 60.547616], [12.406139, 60.547827], [12.406054, 60.547827], [12.406054, 60.547911], [12.405968, 60.547911], [12.405882, 60.547996], [12.40571, 60.547996], [12.40571, 60.548207], [12.406054, 60.548333], [12.406054, 60.54846], [12.40674, 60.54846], [12.40674, 60.548502], [12.407084, 60.548502], [12.407169, 60.548587], [12.40777, 60.548587], [12.407856, 60.548502], [12.408199, 60.548502], [12.408457, 60.548671], [12.408972, 60.548671], [12.408972, 60.548629], [12.409229, 60.548629], [12.409229, 60.548671], [12.409315, 60.548671], [12.409315, 60.548755], [12.409229, 60.548755], [12.409229, 60.548798], [12.409143, 60.548798], [12.408886, 60.548966], [12.408714, 60.548966], [12.408714, 60.549009], [12.408543, 60.549051], [12.408543, 60.549135], [12.408628, 60.549135], [12.408543, 60.54922], [12.408113, 60.54922], [12.408028, 60.549135], [12.407684, 60.549135], [12.407684, 60.549177], [12.407513, 60.54922], [12.407255, 60.549051], [12.40674, 60.549051], [12.40674, 60.549093], [12.406654, 60.549093], [12.406654, 60.549177], [12.406569, 60.549177], [12.406483, 60.549262], [12.405195, 60.549262]]]}, "properties": {"periode": "etter_host_2025", "areal_ha": 3.11, "andel_innenfor_jaktfelt": 0.0, "jaktfelt": "Husuberget", "grunnlinje": "2025-09-25", "observert": "2026-09-03", "bekreftet": "2026-09-13"}}, {"type": "Feature", "geometry": {"type": "Polygon", "coordinates": [[[12.391376, 60.547109], [12.391376, 60.547067], [12.391205, 60.547025], [12.391205, 60.546772], [12.391119, 60.546772], [12.391119, 60.54673], [12.390776, 60.54673], [12.390776, 60.546687], [12.39069, 60.546687], [12.39069, 60.546603], [12.390776, 60.546603], [12.390947, 60.546476], [12.391119, 60.546476], [12.391119, 60.546434], [12.391205, 60.546434], [12.391205, 60.546308], [12.391891, 60.546308], [12.391891, 60.54635], [12.392063, 60.54635], [12.392149, 60.546434], [12.392321, 60.546434], [12.392321, 60.546392], [12.392406, 60.546392], [12.392578, 60.546519], [12.39275, 60.546519], [12.39275, 60.546561], [12.392836, 60.546561], [12.392836, 60.546687], [12.392921, 60.546687], [12.392921, 60.546856], [12.392836, 60.546856], [12.392836, 60.546898], [12.391806, 60.546941], [12.391548, 60.547109], [12.391376, 60.547109]]]}, "properties": {"periode": "etter_host_2025", "areal_ha": 0.66, "andel_innenfor_jaktfelt": 1.0, "jaktfelt": "Husuberget", "grunnlinje": "2025-09-25", "observert": "2026-09-03", "bekreftet": "2026-09-13"}}, {"type": "Feature", "geometry": {"type": "Polygon", "coordinates": [[[12.391205, 60.546181], [12.391119, 60.545801], [12.391205, 60.545801], [12.391205, 60.545759], [12.391462, 60.545759], [12.391462, 60.545801], [12.391548, 60.545801], [12.391548, 60.545886], [12.391462, 60.545886], [12.391462, 60.546139], [12.391376, 60.546139], [12.391376, 60.546181], [12.391205, 60.546181]]]}, "properties": {"periode": "etter_host_2025", "areal_ha": 0.08, "andel_innenfor_jaktfelt": 1.0, "jaktfelt": "Husuberget", "grunnlinje": "2025-09-25", "observert": "2026-09-03", "bekreftet": "2026-09-13"}}, {"type": "Feature", "geometry": {"type": "Polygon", "coordinates": [[[12.392578, 60.545759], [12.392492, 60.545675], [12.392063, 60.545675], [12.392063, 60.545632], [12.391977, 60.545632], [12.391977, 60.54559], [12.392063, 60.54559], [12.391977, 60.545252], [12.392063, 60.545252], [12.392063, 60.545168], [12.392321, 60.545084], [12.392321, 60.544957], [12.392492, 60.544915], [12.392492, 60.544788], [12.392578, 60.544788], [12.392578, 60.544746], [12.392664, 60.544746], [12.392664, 60.544788], [12.393007, 60.544746], [12.393093, 60.54483], [12.393351, 60.54483], [12.393351, 60.544746], [12.39378, 60.544746], [12.39378, 60.544704], [12.39481, 60.544704], [12.39481, 60.544535], [12.394896, 60.544535], [12.394896, 60.544493], [12.395153, 60.544493], [12.395325, 60.544662], [12.39584, 60.544662], [12.395926, 60.544577], [12.396097, 60.544577], [12.396183, 60.544662], [12.396355, 60.544662], [12.396355, 60.54483], [12.396097, 60.544915], [12.396097, 60.545041], [12.396011, 60.545041], [12.396011, 60.545337], [12.395926, 60.545337], [12.395926, 60.545379], [12.395582, 60.545379], [12.395582, 60.545421], [12.395496, 60.545421], [12.395496, 60.545548], [12.395325, 60.545548], [12.395325, 60.545464], [12.395239, 60.545464], [12.395239, 60.545421], [12.394981, 60.545421], [12.394981, 60.545379], [12.394896, 60.545379], [12.394896, 60.545084], [12.39481, 60.545084], [12.39481, 60.545041], [12.394037, 60.544999], [12.394037, 60.545041], [12.393951, 60.545041], [12.393951, 60.545084], [12.393866, 60.545084], [12.393608, 60.545252], [12.393436, 60.545252], [12.393436, 60.545379], [12.393608, 60.545421], [12.393522, 60.54559], [12.393436, 60.54559], [12.393436, 60.545632], [12.392921, 60.54559], [12.392921, 60.545632], [12.39275, 60.545675], [12.39275, 60.545759], [12.392578, 60.545759]], [[12.394295, 60.544915], [12.394638, 60.544915], [12.394638, 60.544788], [12.394381, 60.544788], [12.394381, 60.54483], [12.394295, 60.54483], [12.394295, 60.544915]]]}, "properties": {"periode": "etter_host_2025", "areal_ha": 1.62, "andel_innenfor_jaktfelt": 0.51, "jaktfelt": "Husuberget", "grunnlinje": "2025-09-25", "observert": "2026-09-03", "bekreftet": "2026-09-13"}}, {"type": "Feature", "geometry": {"type": "Polygon", "coordinates": [[[12.396355, 60.544113], [12.396355, 60.544028], [12.396441, 60.544028], [12.396441, 60.543986], [12.396612, 60.543986], [12.396612, 60.544028], [12.396698, 60.544028], [12.396698, 60.544113], [12.396355, 60.544113]]]}, "properties": {"periode": "etter_host_2025", "areal_ha": 0.02, "andel_innenfor_jaktfelt": 1.0, "jaktfelt": "Husuberget", "grunnlinje": "2025-09-25", "observert": "2026-09-03", "bekreftet": "2026-09-13"}}, {"type": "Feature", "geometry": {"type": "Polygon", "coordinates": [[[12.392406, 60.544577], [12.392406, 60.544535], [12.392321, 60.544535], [12.392321, 60.544451], [12.391891, 60.544493], [12.391891, 60.544451], [12.39172, 60.544408], [12.39172, 60.544324], [12.391891, 60.544282], [12.391806, 60.544071], [12.391977, 60.544071], [12.391977, 60.544028], [12.392149, 60.544028], [12.392321, 60.543902], [12.392578, 60.543902], [12.392578, 60.54386], [12.392664, 60.54386], [12.392664, 60.543902], [12.39275, 60.543902], [12.393007, 60.544071], [12.393179, 60.544071], [12.393179, 60.544113], [12.393351, 60.544155], [12.393351, 60.544282], [12.393265, 60.544282], [12.393351, 60.544493], [12.393265, 60.544493], [12.393265, 60.544535], [12.393007, 60.544535], [12.393007, 60.544577], [12.392406, 60.544577]]]}, "properties": {"periode": "etter_host_2025", "areal_ha": 0.49, "andel_innenfor_jaktfelt": 0.0, "jaktfelt": "Husuberget", "grunnlinje": "2025-09-25", "observert": "2026-09-03", "bekreftet": "2026-09-13"}}, {"type": "Feature", "geometry": {"type": "Polygon", "coordinates": [[[12.395754, 60.544113], [12.395754, 60.544071], [12.395411, 60.543944], [12.395411, 60.54386], [12.395496, 60.54386], [12.395496, 60.543775], [12.395411, 60.543775], [12.395411, 60.543606], [12.395496, 60.543606], [12.395582, 60.543522], [12.396097, 60.543522], [12.396097, 60.543564], [12.396355, 60.543649], [12.396355, 60.543691], [12.396269, 60.543691], [12.396269, 60.543775], [12.396955, 60.543775], [12.396955, 60.543902], [12.39687, 60.543902], [12.39687, 60.543944], [12.396784, 60.543944], [12.396784, 60.543902], [12.396612, 60.543902], [12.396612, 60.543944], [12.395926, 60.543944], [12.395926, 60.544071], [12.395754, 60.544113]]]}, "properties": {"periode": "etter_host_2025", "areal_ha": 0.3, "andel_innenfor_jaktfelt": 0.99, "jaktfelt": "Husuberget", "grunnlinje": "2025-09-25", "observert": "2026-09-03", "bekreftet": "2026-09-13"}}, {"type": "Feature", "geometry": {"type": "Polygon", "coordinates": [[[12.430086, 60.604877], [12.430086, 60.604708], [12.430172, 60.604708], [12.430429, 60.60454], [12.430687, 60.60454], [12.430687, 60.604624], [12.430429, 60.604708], [12.430429, 60.604793], [12.430344, 60.604793], [12.430258, 60.604877], [12.430086, 60.604877]]]}, "properties": {"periode": "host_2024_til_host_2025", "areal_ha": 0.06, "andel_innenfor_jaktfelt": 0.0, "jaktfelt": "Husuberget", "grunnlinje": "2024-09-15", "observert": "2026-09-03", "bekreftet": "2026-09-13"}}, {"type": "Feature", "geometry": {"type": "Polygon", "coordinates": [[[12.434464, 60.602812], [12.434464, 60.602728], [12.434635, 60.602728], [12.434635, 60.602686], [12.434807, 60.602686], [12.434807, 60.602644], [12.435064, 60.602644], [12.435064, 60.602602], [12.436609, 60.602602], [12.436609, 60.602644], [12.436781, 60.602686], [12.436695, 60.60277], [12.435837, 60.60277], [12.435751, 60.602686], [12.435408, 60.602686], [12.435408, 60.60277], [12.435322, 60.60277], [12.435322, 60.602812], [12.434464, 60.602812]]]}, "properties": {"periode": "host_2024_til_host_2025", "areal_ha": 0.2, "andel_innenfor_jaktfelt": 0.71, "jaktfelt": "Husuberget", "grunnlinje": "2024-09-15", "observert": "2026-09-03", "bekreftet": "2026-09-13"}}, {"type": "Feature", "geometry": {"type": "Polygon", "coordinates": [[[12.461672, 60.600242], [12.461672, 60.6002], [12.461586, 60.6002], [12.461672, 60.600116], [12.462015, 60.600116], [12.462015, 60.6002], [12.461672, 60.600242]]]}, "properties": {"periode": "host_2024_til_host_2025", "areal_ha": 0.02, "andel_innenfor_jaktfelt": 0.0, "jaktfelt": "Husuberget", "grunnlinje": "2024-09-15", "observert": "2026-09-03", "bekreftet": "2026-09-13"}}, {"type": "Feature", "geometry": {"type": "Polygon", "coordinates": [[[12.463903, 60.59999], [12.463903, 60.599947], [12.464075, 60.599905], [12.463989, 60.599821], [12.464161, 60.599821], [12.464333, 60.599695], [12.464848, 60.599695], [12.464933, 60.59961], [12.465448, 60.59961], [12.465448, 60.599568], [12.46562, 60.599568], [12.465878, 60.5994], [12.466135, 60.5994], [12.466135, 60.599358], [12.466307, 60.599315], [12.466307, 60.599442], [12.466221, 60.599442], [12.466221, 60.599526], [12.466135, 60.599526], [12.466135, 60.599568], [12.465792, 60.599568], [12.465706, 60.599652], [12.465363, 60.599652], [12.465191, 60.599779], [12.464504, 60.599779], [12.464333, 60.599905], [12.464161, 60.599905], [12.464075, 60.59999], [12.463903, 60.59999]]]}, "properties": {"periode": "host_2024_til_host_2025", "areal_ha": 0.18, "andel_innenfor_jaktfelt": 0.08, "jaktfelt": "Husuberget", "grunnlinje": "2024-09-15", "observert": "2026-09-03", "bekreftet": "2026-09-13"}}, {"type": "Feature", "geometry": {"type": "MultiPolygon", "coordinates": [[[[12.466993, 60.599189], [12.466908, 60.599105], [12.467079, 60.599063], [12.467079, 60.598978], [12.467251, 60.598936], [12.467251, 60.599063], [12.467508, 60.599063], [12.467508, 60.59902], [12.467766, 60.598936], [12.467766, 60.59902], [12.46768, 60.59902], [12.467422, 60.599189], [12.466993, 60.599189]]], [[[12.467766, 60.598936], [12.46768, 60.598768], [12.467766, 60.598768], [12.467766, 60.598726], [12.468109, 60.598599], [12.468109, 60.598515], [12.468195, 60.598515], [12.468195, 60.598473], [12.468281, 60.598473], [12.468281, 60.598431], [12.468367, 60.598431], [12.468367, 60.598388], [12.468452, 60.598388], [12.468452, 60.598346], [12.468796, 60.59822], [12.468796, 60.598136], [12.468882, 60.598136], [12.469053, 60.598009], [12.469225, 60.598009], [12.469225, 60.598136], [12.469139, 60.598136], [12.469139, 60.59822], [12.469053, 60.59822], [12.469053, 60.598346], [12.46871, 60.598473], [12.46871, 60.598557], [12.468624, 60.598557], [12.468367, 60.598726], [12.468195, 60.598726], [12.468195, 60.598768], [12.468109, 60.598768], [12.468109, 60.598852], [12.468023, 60.598852], [12.468023, 60.598894], [12.467852, 60.598894], [12.467852, 60.598936], [12.467766, 60.598936]]]]}, "properties": {"periode": "host_2024_til_host_2025", "areal_ha": 0.3, "andel_innenfor_jaktfelt": 0.31, "jaktfelt": "Husuberget", "grunnlinje": "2024-09-15", "observert": "2026-09-03", "bekreftet": "2026-09-13"}}, {"type": "Feature", "geometry": {"type": "Polygon", "coordinates": [[[12.469482, 60.597883], [12.469482, 60.597841], [12.469397, 60.597841], [12.469397, 60.597756], [12.469482, 60.597756], [12.469482, 60.597672], [12.46974, 60.597588], [12.46974, 60.59763], [12.469912, 60.597672], [12.469912, 60.597798], [12.469826, 60.597798], [12.469826, 60.597841], [12.469654, 60.597841], [12.469654, 60.597883], [12.469482, 60.597883]]]}, "properties": {"periode": "host_2024_til_host_2025", "areal_ha": 0.06, "andel_innenfor_jaktfelt": 0.46, "jaktfelt": "Husuberget", "grunnlinje": "2024-09-15", "observert": "2026-09-03", "bekreftet": "2026-09-13"}}, {"type": "Feature", "geometry": {"type": "Polygon", "coordinates": [[[12.47077, 60.597335], [12.47077, 60.597082], [12.470512, 60.596998], [12.470512, 60.596745], [12.470856, 60.596619], [12.470856, 60.596408], [12.471027, 60.596366], [12.471027, 60.596282], [12.471113, 60.596282], [12.471113, 60.596239], [12.471285, 60.596239], [12.471285, 60.596324], [12.471199, 60.596324], [12.471199, 60.596619], [12.471113, 60.596619], [12.471113, 60.596703], [12.470856, 60.596787], [12.470942, 60.597335], [12.47077, 60.597335]]]}, "properties": {"periode": "host_2024_til_host_2025", "areal_ha": 0.19, "andel_innenfor_jaktfelt": 0.25, "jaktfelt": "Husuberget", "grunnlinje": "2024-09-15", "observert": "2026-09-03", "bekreftet": "2026-09-13"}}, {"type": "Feature", "geometry": {"type": "Polygon", "coordinates": [[[12.471113, 60.595312], [12.471113, 60.595228], [12.470856, 60.595144], [12.470856, 60.594596], [12.47077, 60.594596], [12.47077, 60.594512], [12.470684, 60.594512], [12.470684, 60.594427], [12.470598, 60.594427], [12.470598, 60.594259], [12.470427, 60.594217], [12.470684, 60.594048], [12.470856, 60.594048], [12.470856, 60.593964], [12.47077, 60.593964], [12.47077, 60.593627], [12.470684, 60.593627], [12.470856, 60.5935], [12.471027, 60.5935], [12.471027, 60.593542], [12.471113, 60.593542], [12.471113, 60.594301], [12.471199, 60.594301], [12.471199, 60.594554], [12.471285, 60.594554], [12.471285, 60.594638], [12.471371, 60.594638], [12.471371, 60.59468], [12.471285, 60.59468], [12.471285, 60.594849], [12.471371, 60.594849], [12.471371, 60.595017], [12.471457, 60.595017], [12.471457, 60.595186], [12.471285, 60.595228], [12.471285, 60.595312], [12.471113, 60.595312]]]}, "properties": {"periode": "host_2024_til_host_2025", "areal_ha": 0.49, "andel_innenfor_jaktfelt": 0.48, "jaktfelt": "Husuberget", "grunnlinje": "2024-09-15", "observert": "2026-09-03", "bekreftet": "2026-09-13"}}, {"type": "Feature", "geometry": {"type": "Polygon", "coordinates": [[[12.47077, 60.593247], [12.47077, 60.593205], [12.470684, 60.593205], [12.470684, 60.593163], [12.47077, 60.593163], [12.47077, 60.592994], [12.470942, 60.592994], [12.470942, 60.593247], [12.47077, 60.593247]]]}, "properties": {"periode": "host_2024_til_host_2025", "areal_ha": 0.03, "andel_innenfor_jaktfelt": 0.42, "jaktfelt": "Husuberget", "grunnlinje": "2024-09-15", "observert": "2026-09-03", "bekreftet": "2026-09-13"}}, {"type": "Feature", "geometry": {"type": "Polygon", "coordinates": [[[12.47077, 60.59291], [12.47077, 60.592236], [12.470684, 60.592236], [12.470598, 60.592152], [12.470856, 60.592067], [12.470856, 60.591772], [12.470684, 60.59173], [12.470684, 60.591646], [12.470856, 60.591604], [12.470856, 60.591477], [12.470684, 60.591435], [12.470684, 60.591267], [12.470856, 60.591224], [12.470856, 60.591014], [12.470942, 60.591014], [12.470942, 60.590887], [12.470856, 60.590887], [12.470856, 60.590845], [12.470684, 60.590845], [12.470684, 60.590761], [12.470856, 60.590761], [12.470856, 60.590719], [12.470942, 60.590719], [12.470942, 60.590508], [12.47077, 60.590466], [12.47077, 60.590339], [12.470856, 60.590339], [12.470942, 60.590424], [12.471113, 60.590424], [12.471113, 60.590381], [12.471285, 60.590339], [12.471285, 60.590466], [12.471199, 60.590466], [12.471199, 60.59055], [12.471113, 60.59055], [12.471113, 60.591014], [12.471199, 60.591014], [12.471199, 60.591098], [12.471027, 60.59114], [12.471027, 60.591351], [12.471113, 60.591351], [12.471113, 60.591477], [12.471027, 60.591477], [12.471027, 60.591857], [12.471113, 60.591857], [12.471113, 60.592489], [12.470942, 60.592531], [12.470942, 60.59291], [12.47077, 60.59291]]]}, "properties": {"periode": "host_2024_til_host_2025", "areal_ha": 0.43, "andel_innenfor_jaktfelt": 0.07, "jaktfelt": "Husuberget", "grunnlinje": "2024-09-15", "observert": "2026-09-03", "bekreftet": "2026-09-13"}}, {"type": "Feature", "geometry": {"type": "Polygon", "coordinates": [[[12.471199, 60.589581], [12.471199, 60.589454], [12.471113, 60.589454], [12.471027, 60.58937], [12.470856, 60.58937], [12.470856, 60.589412], [12.47077, 60.589412], [12.470856, 60.589328], [12.471113, 60.589328], [12.471113, 60.58937], [12.471285, 60.58937], [12.471285, 60.589412], [12.471371, 60.589412], [12.471371, 60.589538], [12.471199, 60.589581]]]}, "properties": {"periode": "host_2024_til_host_2025", "areal_ha": 0.03, "andel_innenfor_jaktfelt": 0.0, "jaktfelt": "Husuberget", "grunnlinje": "2024-09-15", "observert": "2026-09-03", "bekreftet": "2026-09-13"}}, {"type": "Feature", "geometry": {"type": "Polygon", "coordinates": [[[12.413607, 60.58545], [12.413607, 60.585408], [12.413435, 60.585366], [12.413521, 60.585281], [12.413692, 60.585281], [12.413692, 60.585323], [12.413778, 60.585323], [12.413778, 60.585408], [12.413607, 60.58545]]]}, "properties": {"periode": "host_2024_til_host_2025", "areal_ha": 0.02, "andel_innenfor_jaktfelt": 1.0, "jaktfelt": "Husuberget", "grunnlinje": "2024-09-15", "observert": "2026-09-03", "bekreftet": "2026-09-13"}}, {"type": "Feature", "geometry": {"type": "Polygon", "coordinates": [[[12.458839, 60.583131], [12.458839, 60.583047], [12.458925, 60.583047], [12.459011, 60.582963], [12.459354, 60.582963], [12.459354, 60.583047], [12.459097, 60.583047], [12.459011, 60.583131], [12.458839, 60.583131]]]}, "properties": {"periode": "host_2024_til_host_2025", "areal_ha": 0.03, "andel_innenfor_jaktfelt": 1.0, "jaktfelt": "Husuberget", "grunnlinje": "2024-09-15", "observert": "2026-09-03", "bekreftet": "2026-09-13"}}, {"type": "Feature", "geometry": {"type": "Polygon", "coordinates": [[[12.447767, 60.581951], [12.447767, 60.581909], [12.447681, 60.581909], [12.447681, 60.581656], [12.447767, 60.581656], [12.447767, 60.581614], [12.447939, 60.581614], [12.447939, 60.581656], [12.448025, 60.581656], [12.448025, 60.581824], [12.447939, 60.581824], [12.447939, 60.581951], [12.447767, 60.581951]]]}, "properties": {"periode": "host_2024_til_host_2025", "areal_ha": 0.06, "andel_innenfor_jaktfelt": 1.0, "jaktfelt": "Husuberget", "grunnlinje": "2024-09-15", "observert": "2026-09-03", "bekreftet": "2026-09-13"}}, {"type": "Feature", "geometry": {"type": "Polygon", "coordinates": [[[12.451286, 60.580644], [12.451286, 60.580602], [12.451115, 60.580602], [12.451115, 60.58056], [12.450771, 60.58056], [12.450771, 60.580475], [12.451286, 60.580475], [12.451286, 60.580433], [12.451458, 60.580391], [12.45163, 60.580518], [12.451887, 60.580518], [12.451887, 60.580602], [12.451715, 60.580602], [12.451715, 60.580644], [12.451286, 60.580644]]]}, "properties": {"periode": "host_2024_til_host_2025", "areal_ha": 0.09, "andel_innenfor_jaktfelt": 1.0, "jaktfelt": "Husuberget", "grunnlinje": "2024-09-15", "observert": "2026-09-03", "bekreftet": "2026-09-13"}}, {"type": "Feature", "geometry": {"type": "Polygon", "coordinates": [[[12.448626, 60.579632], [12.44854, 60.579548], [12.448883, 60.579421], [12.448883, 60.579463], [12.448969, 60.579463], [12.448969, 60.57959], [12.448883, 60.57959], [12.448883, 60.579632], [12.448626, 60.579632]]]}, "properties": {"periode": "host_2024_til_host_2025", "areal_ha": 0.04, "andel_innenfor_jaktfelt": 1.0, "jaktfelt": "Husuberget", "grunnlinje": "2024-09-15", "observert": "2026-09-03", "bekreftet": "2026-09-13"}}, {"type": "Feature", "geometry": {"type": "Polygon", "coordinates": [[[12.484245, 60.565252], [12.484245, 60.56521], [12.484074, 60.56521], [12.484074, 60.565168], [12.484245, 60.565125], [12.484245, 60.564999], [12.484331, 60.564999], [12.484331, 60.565125], [12.484417, 60.565125], [12.484417, 60.56521], [12.484503, 60.56521], [12.484503, 60.565252], [12.484245, 60.565252]]]}, "properties": {"periode": "host_2024_til_host_2025", "areal_ha": 0.03, "andel_innenfor_jaktfelt": 1.0, "jaktfelt": "Husuberget", "grunnlinje": "2024-09-15", "observert": "2026-09-03", "bekreftet": "2026-09-13"}}, {"type": "Feature", "geometry": {"type": "Polygon", "coordinates": [[[12.48785, 60.564999], [12.487679, 60.564872], [12.48785, 60.564872], [12.48785, 60.56483], [12.488022, 60.564788], [12.488022, 60.564957], [12.48785, 60.564999]]]}, "properties": {"periode": "host_2024_til_host_2025", "areal_ha": 0.02, "andel_innenfor_jaktfelt": 0.0, "jaktfelt": "Husuberget", "grunnlinje": "2024-09-15", "observert": "2026-09-03", "bekreftet": "2026-09-13"}}, {"type": "Feature", "geometry": {"type": "Polygon", "coordinates": [[[12.486048, 60.564197], [12.486048, 60.564155], [12.485876, 60.564113], [12.485876, 60.563987], [12.485962, 60.563987], [12.485962, 60.563944], [12.485876, 60.563944], [12.485876, 60.563902], [12.485704, 60.563902], [12.485533, 60.563733], [12.485104, 60.563733], [12.485104, 60.563691], [12.485018, 60.563691], [12.485018, 60.563733], [12.484846, 60.563733], [12.484846, 60.563649], [12.485189, 60.563649], [12.485189, 60.563691], [12.485447, 60.563691], [12.485447, 60.563649], [12.485876, 60.563649], [12.485876, 60.563691], [12.485962, 60.563691], [12.485962, 60.563818], [12.486219, 60.563818], [12.486219, 60.56386], [12.486048, 60.563902], [12.486048, 60.563987], [12.486134, 60.563987], [12.486134, 60.564113], [12.486048, 60.564113], [12.486134, 60.564197], [12.486048, 60.564197]]]}, "properties": {"periode": "host_2024_til_host_2025", "areal_ha": 0.12, "andel_innenfor_jaktfelt": 0.78, "jaktfelt": "Husuberget", "grunnlinje": "2024-09-15", "observert": "2026-09-03", "bekreftet": "2026-09-13"}}, {"type": "Feature", "geometry": {"type": "Polygon", "coordinates": [[[12.397642, 60.56154], [12.397642, 60.561456], [12.397299, 60.561329], [12.397299, 60.561202], [12.397385, 60.561202], [12.397385, 60.56116], [12.397814, 60.56116], [12.397814, 60.561202], [12.3979, 60.561202], [12.3979, 60.561371], [12.397728, 60.561413], [12.397728, 60.561498], [12.397814, 60.561498], [12.397814, 60.56154], [12.397642, 60.56154]]]}, "properties": {"periode": "host_2024_til_host_2025", "areal_ha": 0.09, "andel_innenfor_jaktfelt": 1.0, "jaktfelt": "Husuberget", "grunnlinje": "2024-09-15", "observert": "2026-09-03", "bekreftet": "2026-09-13"}}, {"type": "Feature", "geometry": {"type": "Polygon", "coordinates": [[[12.48991, 60.560907], [12.48991, 60.560865], [12.489738, 60.560865], [12.489738, 60.560823], [12.489653, 60.560823], [12.489653, 60.560654], [12.489824, 60.560654], [12.489824, 60.560612], [12.489996, 60.56057], [12.490082, 60.560654], [12.489996, 60.560654], [12.489996, 60.560907], [12.48991, 60.560907]]]}, "properties": {"periode": "host_2024_til_host_2025", "areal_ha": 0.05, "andel_innenfor_jaktfelt": 0.0, "jaktfelt": "Husuberget", "grunnlinje": "2024-09-15", "observert": "2026-09-03", "bekreftet": "2026-09-13"}}, {"type": "Feature", "geometry": {"type": "Polygon", "coordinates": [[[12.493858, 60.561498], [12.493687, 60.561371], [12.493429, 60.561371], [12.493343, 60.561456], [12.493172, 60.561456], [12.493172, 60.561329], [12.493343, 60.561287], [12.493343, 60.560907], [12.493, 60.560823], [12.493, 60.560738], [12.493172, 60.560738], [12.493172, 60.560696], [12.493258, 60.560696], [12.493258, 60.56057], [12.493086, 60.56057], [12.493086, 60.560527], [12.493, 60.560527], [12.493, 60.560274], [12.492485, 60.560274], [12.492485, 60.560232], [12.492142, 60.560232], [12.492142, 60.56019], [12.491798, 60.560232], [12.491798, 60.56019], [12.491541, 60.560106], [12.491541, 60.560021], [12.491369, 60.559979], [12.491455, 60.559895], [12.492399, 60.559895], [12.492399, 60.559937], [12.492485, 60.559937], [12.492485, 60.560106], [12.492828, 60.560106], [12.492828, 60.560148], [12.493, 60.560148], [12.493, 60.560106], [12.493086, 60.560106], [12.493086, 60.560148], [12.493258, 60.56019], [12.493258, 60.560317], [12.493343, 60.560317], [12.493343, 60.560359], [12.493601, 60.560359], [12.493601, 60.56057], [12.493687, 60.56057], [12.493773, 60.560654], [12.493944, 60.560654], [12.493944, 60.560696], [12.49403, 60.560696], [12.49403, 60.560823], [12.493944, 60.560823], [12.493944, 60.560907], [12.49403, 60.560907], [12.49403, 60.560949], [12.493773, 60.561034], [12.493773, 60.561118], [12.493858, 60.561118], [12.493858, 60.561245], [12.494202, 60.561371], [12.494202, 60.561456], [12.494116, 60.561456], [12.494116, 60.561498], [12.493858, 60.561498]]]}, "properties": {"periode": "host_2024_til_host_2025", "areal_ha": 0.71, "andel_innenfor_jaktfelt": 0.0, "jaktfelt": "Husuberget", "grunnlinje": "2024-09-15", "observert": "2026-09-03", "bekreftet": "2026-09-13"}}, {"type": "Feature", "geometry": {"type": "Polygon", "coordinates": [[[12.489481, 60.559768], [12.489481, 60.559726], [12.489567, 60.559726], [12.489567, 60.559599], [12.489738, 60.559599], [12.489738, 60.559515], [12.489824, 60.559515], [12.489738, 60.559726], [12.489653, 60.559726], [12.489653, 60.559768], [12.489481, 60.559768]]]}, "properties": {"periode": "host_2024_til_host_2025", "areal_ha": 0.02, "andel_innenfor_jaktfelt": 0.0, "jaktfelt": "Husuberget", "grunnlinje": "2024-09-15", "observert": "2026-09-03", "bekreftet": "2026-09-13"}}, {"type": "Feature", "geometry": {"type": "Polygon", "coordinates": [[[12.401676, 60.559473], [12.401676, 60.55922], [12.401848, 60.55922], [12.401848, 60.559473], [12.401676, 60.559473]]]}, "properties": {"periode": "host_2024_til_host_2025", "areal_ha": 0.03, "andel_innenfor_jaktfelt": 1.0, "jaktfelt": "Husuberget", "grunnlinje": "2024-09-15", "observert": "2026-09-03", "bekreftet": "2026-09-13"}}, {"type": "Feature", "geometry": {"type": "MultiPolygon", "coordinates": [[[[12.448454, 60.559177], [12.448454, 60.559135], [12.448797, 60.559135], [12.448797, 60.559177], [12.448454, 60.559177]]], [[[12.448797, 60.559135], [12.448797, 60.559093], [12.449398, 60.559093], [12.449398, 60.559135], [12.448797, 60.559135]]]]}, "properties": {"periode": "host_2024_til_host_2025", "areal_ha": 0.02, "andel_innenfor_jaktfelt": 1.0, "jaktfelt": "Husuberget", "grunnlinje": "2024-09-15", "observert": "2026-09-03", "bekreftet": "2026-09-13"}}, {"type": "Feature", "geometry": {"type": "Polygon", "coordinates": [[[12.450256, 60.559304], [12.450256, 60.559135], [12.450171, 60.559135], [12.450171, 60.559093], [12.449999, 60.559093], [12.449999, 60.559051], [12.450085, 60.559051], [12.450171, 60.558967], [12.450428, 60.558967], [12.450428, 60.559009], [12.450514, 60.559009], [12.450514, 60.559051], [12.450428, 60.559051], [12.450514, 60.559262], [12.450428, 60.559262], [12.450428, 60.559304], [12.450256, 60.559304]]]}, "properties": {"periode": "host_2024_til_host_2025", "areal_ha": 0.06, "andel_innenfor_jaktfelt": 1.0, "jaktfelt": "Husuberget", "grunnlinje": "2024-09-15", "observert": "2026-09-03", "bekreftet": "2026-09-13"}}, {"type": "Feature", "geometry": {"type": "Polygon", "coordinates": [[[12.448196, 60.559093], [12.448196, 60.558882], [12.448711, 60.558882], [12.448711, 60.559009], [12.44854, 60.559009], [12.44854, 60.559051], [12.448282, 60.559051], [12.448282, 60.559093], [12.448196, 60.559093]]]}, "properties": {"periode": "host_2024_til_host_2025", "areal_ha": 0.05, "andel_innenfor_jaktfelt": 1.0, "jaktfelt": "Husuberget", "grunnlinje": "2024-09-15", "observert": "2026-09-03", "bekreftet": "2026-09-13"}}, {"type": "Feature", "geometry": {"type": "Polygon", "coordinates": [[[12.450943, 60.559051], [12.450943, 60.559009], [12.450686, 60.559009], [12.450686, 60.558967], [12.450771, 60.558967], [12.450771, 60.55884], [12.450943, 60.55884], [12.450943, 60.558882], [12.451115, 60.55884], [12.451115, 60.559051], [12.450943, 60.559051]]]}, "properties": {"periode": "host_2024_til_host_2025", "areal_ha": 0.04, "andel_innenfor_jaktfelt": 1.0, "jaktfelt": "Husuberget", "grunnlinje": "2024-09-15", "observert": "2026-09-03", "bekreftet": "2026-09-13"}}, {"type": "Feature", "geometry": {"type": "Polygon", "coordinates": [[[12.448282, 60.558798], [12.448454, 60.558671], [12.448797, 60.558671], [12.448797, 60.558713], [12.448626, 60.558713], [12.44854, 60.558798], [12.448282, 60.558798]]]}, "properties": {"periode": "host_2024_til_host_2025", "areal_ha": 0.02, "andel_innenfor_jaktfelt": 1.0, "jaktfelt": "Husuberget", "grunnlinje": "2024-09-15", "observert": "2026-09-03", "bekreftet": "2026-09-13"}}, {"type": "Feature", "geometry": {"type": "MultiPolygon", "coordinates": [[[[12.448883, 60.558671], [12.448883, 60.558629], [12.448969, 60.558629], [12.448969, 60.558671], [12.448883, 60.558671]]], [[[12.448969, 60.558629], [12.448969, 60.558545], [12.449226, 60.558545], [12.449226, 60.558587], [12.449398, 60.558629], [12.449398, 60.558671], [12.449141, 60.558671], [12.449141, 60.558629], [12.448969, 60.558629]]]]}, "properties": {"periode": "host_2024_til_host_2025", "areal_ha": 0.02, "andel_innenfor_jaktfelt": 1.0, "jaktfelt": "Husuberget", "grunnlinje": "2024-09-15", "observert": "2026-09-03", "bekreftet": "2026-09-13"}}, {"type": "Feature", "geometry": {"type": "Polygon", "coordinates": [[[12.40159, 60.558587], [12.40159, 60.558123], [12.401676, 60.558123], [12.401676, 60.558081], [12.401848, 60.558081], [12.401934, 60.558165], [12.401762, 60.558207], [12.401762, 60.558587], [12.40159, 60.558587]]]}, "properties": {"periode": "host_2024_til_host_2025", "areal_ha": 0.06, "andel_innenfor_jaktfelt": 1.0, "jaktfelt": "Husuberget", "grunnlinje": "2024-09-15", "observert": "2026-09-03", "bekreftet": "2026-09-13"}}, {"type": "Feature", "geometry": {"type": "Polygon", "coordinates": [[[12.443905, 60.556224], [12.443905, 60.55614], [12.443733, 60.556098], [12.443733, 60.555887], [12.443476, 60.555802], [12.443647, 60.555676], [12.443991, 60.555676], [12.443991, 60.555718], [12.444248, 60.555802], [12.444248, 60.555887], [12.444162, 60.555887], [12.444077, 60.555802], [12.443905, 60.555802], [12.443905, 60.555971], [12.443991, 60.555971], [12.443991, 60.556013], [12.444162, 60.556013], [12.444162, 60.55614], [12.443905, 60.556224]]]}, "properties": {"periode": "host_2024_til_host_2025", "areal_ha": 0.11, "andel_innenfor_jaktfelt": 1.0, "jaktfelt": "Husuberget", "grunnlinje": "2024-09-15", "observert": "2026-09-03", "bekreftet": "2026-09-13"}}, {"type": "Feature", "geometry": {"type": "Polygon", "coordinates": [[[12.487164, 60.555423], [12.487164, 60.55538], [12.487249, 60.55538], [12.487249, 60.555296], [12.487164, 60.555296], [12.487164, 60.555254], [12.487593, 60.555254], [12.487593, 60.555296], [12.487936, 60.555254], [12.487936, 60.55538], [12.488022, 60.55538], [12.488022, 60.555423], [12.487164, 60.555423]]]}, "properties": {"periode": "host_2024_til_host_2025", "areal_ha": 0.07, "andel_innenfor_jaktfelt": 1.0, "jaktfelt": "Husuberget", "grunnlinje": "2024-09-15", "observert": "2026-09-03", "bekreftet": "2026-09-13"}}, {"type": "Feature", "geometry": {"type": "MultiPolygon", "coordinates": [[[[12.488966, 60.55538], [12.488966, 60.555338], [12.489052, 60.555338], [12.489052, 60.55538], [12.488966, 60.55538]]], [[[12.489052, 60.555338], [12.489052, 60.555254], [12.489309, 60.555254], [12.489309, 60.555212], [12.489395, 60.555212], [12.489395, 60.554874], [12.489738, 60.55479], [12.489738, 60.554916], [12.489653, 60.554916], [12.489653, 60.555001], [12.489738, 60.555001], [12.489738, 60.555169], [12.489653, 60.555169], [12.489653, 60.555212], [12.489481, 60.555212], [12.489309, 60.55538], [12.489223, 60.55538], [12.489223, 60.555338], [12.489052, 60.555338]]]]}, "properties": {"periode": "host_2024_til_host_2025", "areal_ha": 0.1, "andel_innenfor_jaktfelt": 0.0, "jaktfelt": "Husuberget", "grunnlinje": "2024-09-15", "observert": "2026-09-03", "bekreftet": "2026-09-13"}}, {"type": "Feature", "geometry": {"type": "Polygon", "coordinates": [[[12.491026, 60.554157], [12.491026, 60.554115], [12.49094, 60.554115], [12.491026, 60.55403], [12.491369, 60.55403], [12.491369, 60.554115], [12.491283, 60.554115], [12.491283, 60.554157], [12.491026, 60.554157]]]}, "properties": {"periode": "host_2024_til_host_2025", "areal_ha": 0.03, "andel_innenfor_jaktfelt": 0.0, "jaktfelt": "Husuberget", "grunnlinje": "2024-09-15", "observert": "2026-09-03", "bekreftet": "2026-09-13"}}, {"type": "Feature", "geometry": {"type": "Polygon", "coordinates": [[[12.490082, 60.554326], [12.489996, 60.554115], [12.490168, 60.554072], [12.490168, 60.553946], [12.490339, 60.553904], [12.490339, 60.554115], [12.490253, 60.554115], [12.490253, 60.554199], [12.490339, 60.554199], [12.490339, 60.554241], [12.490082, 60.554326]]]}, "properties": {"periode": "host_2024_til_host_2025", "areal_ha": 0.05, "andel_innenfor_jaktfelt": 0.0, "jaktfelt": "Husuberget", "grunnlinje": "2024-09-15", "observert": "2026-09-03", "bekreftet": "2026-09-13"}}, {"type": "Feature", "geometry": {"type": "Polygon", "coordinates": [[[12.460299, 60.554157], [12.460299, 60.553946], [12.460041, 60.553861], [12.460041, 60.553566], [12.459955, 60.553566], [12.459955, 60.553524], [12.459784, 60.553524], [12.459784, 60.553482], [12.459612, 60.553439], [12.459612, 60.553355], [12.459698, 60.553355], [12.459698, 60.553313], [12.460041, 60.553186], [12.460041, 60.553102], [12.460127, 60.553102], [12.460213, 60.553017], [12.46047, 60.553017], [12.46047, 60.55306], [12.460556, 60.55306], [12.460556, 60.553313], [12.460728, 60.553355], [12.460728, 60.553482], [12.460642, 60.553482], [12.460642, 60.55365], [12.460384, 60.55365], [12.460384, 60.553693], [12.460299, 60.553693], [12.460299, 60.553777], [12.46047, 60.553819], [12.46047, 60.554157], [12.460299, 60.554157]]]}, "properties": {"periode": "host_2024_til_host_2025", "areal_ha": 0.35, "andel_innenfor_jaktfelt": 1.0, "jaktfelt": "Husuberget", "grunnlinje": "2024-09-15", "observert": "2026-09-03", "bekreftet": "2026-09-13"}}, {"type": "Feature", "geometry": {"type": "MultiPolygon", "coordinates": [[[[12.489481, 60.552427], [12.489481, 60.552385], [12.489395, 60.552385], [12.489395, 60.5523], [12.489481, 60.5523], [12.489481, 60.552047], [12.489567, 60.552047], [12.489567, 60.551963], [12.489481, 60.551963], [12.489481, 60.55192], [12.489567, 60.55192], [12.489567, 60.551878], [12.489738, 60.551878], [12.489738, 60.55192], [12.489824, 60.55192], [12.489824, 60.552005], [12.48991, 60.552005], [12.48991, 60.551963], [12.489996, 60.551963], [12.489996, 60.551878], [12.490082, 60.551878], [12.490082, 60.55192], [12.490168, 60.55192], [12.490168, 60.552089], [12.490253, 60.552089], [12.490253, 60.552131], [12.490425, 60.552131], [12.490425, 60.552174], [12.490339, 60.552174], [12.490339, 60.5523], [12.490168, 60.5523], [12.490168, 60.552342], [12.490082, 60.552342], [12.490082, 60.5523], [12.489996, 60.5523], [12.489996, 60.552216], [12.489824, 60.552174], [12.489824, 60.552216], [12.489567, 60.5523], [12.489567, 60.552427], [12.489481, 60.552427]], [[12.48991, 60.552174], [12.490082, 60.552131], [12.490082, 60.552047], [12.48991, 60.552047], [12.48991, 60.552089], [12.489824, 60.552089], [12.48991, 60.552174]]], [[[12.490082, 60.552342], [12.490082, 60.552427], [12.489996, 60.552427], [12.489996, 60.552342], [12.490082, 60.552342]]]]}, "properties": {"periode": "host_2024_til_host_2025", "areal_ha": 0.16, "andel_innenfor_jaktfelt": 0.0, "jaktfelt": "Husuberget", "grunnlinje": "2024-09-15", "observert": "2026-09-03", "bekreftet": "2026-09-13"}}, {"type": "Feature", "geometry": {"type": "Polygon", "coordinates": [[[12.457123, 60.552638], [12.457123, 60.552596], [12.457037, 60.552596], [12.457037, 60.552427], [12.456608, 60.552342], [12.456608, 60.552131], [12.456694, 60.552131], [12.456694, 60.552089], [12.456779, 60.552089], [12.456779, 60.552131], [12.456951, 60.552131], [12.456951, 60.552089], [12.457123, 60.552047], [12.457123, 60.55192], [12.457209, 60.55192], [12.457209, 60.551878], [12.45738, 60.551878], [12.45738, 60.552089], [12.457466, 60.552089], [12.457466, 60.552174], [12.457294, 60.552216], [12.457294, 60.552596], [12.457123, 60.552638]]]}, "properties": {"periode": "host_2024_til_host_2025", "areal_ha": 0.2, "andel_innenfor_jaktfelt": 1.0, "jaktfelt": "Husuberget", "grunnlinje": "2024-09-15", "observert": "2026-09-03", "bekreftet": "2026-09-13"}}, {"type": "Feature", "geometry": {"type": "Polygon", "coordinates": [[[12.480898, 60.55095], [12.48107, 60.550781], [12.481413, 60.550739], [12.481155, 60.550908], [12.480984, 60.550908], [12.480984, 60.55095], [12.480898, 60.55095]]]}, "properties": {"periode": "host_2024_til_host_2025", "areal_ha": 0.02, "andel_innenfor_jaktfelt": 0.0, "jaktfelt": "Husuberget", "grunnlinje": "2024-09-15", "observert": "2026-09-03", "bekreftet": "2026-09-13"}}, {"type": "Feature", "geometry": {"type": "Polygon", "coordinates": [[[12.485876, 60.550612], [12.485704, 60.550443], [12.485962, 60.550443], [12.486048, 60.550528], [12.486305, 60.550528], [12.486305, 60.550486], [12.486391, 60.550486], [12.486391, 60.550401], [12.486477, 60.550401], [12.486477, 60.55019], [12.486563, 60.55019], [12.486563, 60.550232], [12.486734, 60.550275], [12.486734, 60.550359], [12.486477, 60.550443], [12.486477, 60.550528], [12.486391, 60.550528], [12.486305, 60.550612], [12.485876, 60.550612]]]}, "properties": {"periode": "host_2024_til_host_2025", "areal_ha": 0.07, "andel_innenfor_jaktfelt": 0.0, "jaktfelt": "Husuberget", "grunnlinje": "2024-09-15", "observert": "2026-09-03", "bekreftet": "2026-09-13"}}, {"type": "Feature", "geometry": {"type": "MultiPolygon", "coordinates": [[[[12.488623, 60.551456], [12.488966, 60.551456], [12.488966, 60.551414], [12.489138, 60.551414], [12.489138, 60.551456], [12.489223, 60.551456], [12.489223, 60.551498], [12.489138, 60.551498], [12.489138, 60.551625], [12.489223, 60.551625], [12.489309, 60.551709], [12.489223, 60.551709], [12.489223, 60.551752], [12.488966, 60.551752], [12.488966, 60.551836], [12.48888, 60.551836], [12.48888, 60.55192], [12.488794, 60.55192], [12.488708, 60.551836], [12.488365, 60.551878], [12.488365, 60.551836], [12.488194, 60.551794], [12.488194, 60.551709], [12.488108, 60.551709], [12.488108, 60.551667], [12.487936, 60.551667], [12.487936, 60.551625], [12.488108, 60.551625], [12.488108, 60.551583], [12.488194, 60.551583], [12.488279, 60.551119], [12.488365, 60.551119], [12.488451, 60.551034], [12.488623, 60.551034], [12.488623, 60.551076], [12.488966, 60.551076], [12.488966, 60.551119], [12.489052, 60.551119], [12.489052, 60.551287], [12.489138, 60.551287], [12.489138, 60.55133], [12.488966, 60.55133], [12.488966, 60.551287], [12.488708, 60.551287], [12.488708, 60.55133], [12.488623, 60.55133], [12.488623, 60.551456]], [[12.488794, 60.551709], [12.488966, 60.551709], [12.488966, 60.551583], [12.488794, 60.551583], [12.488794, 60.551709]]], [[[12.489138, 60.55133], [12.489309, 60.55133], [12.489309, 60.551287], [12.489567, 60.551203], [12.489567, 60.551119], [12.489309, 60.551034], [12.489309, 60.55095], [12.489223, 60.55095], [12.489223, 60.550908], [12.489052, 60.550908], [12.489052, 60.550865], [12.488966, 60.550865], [12.488966, 60.550739], [12.488279, 60.550739], [12.488279, 60.550781], [12.488194, 60.550781], [12.488194, 60.55095], [12.488108, 60.55095], [12.488108, 60.550992], [12.487936, 60.550992], [12.487936, 60.55095], [12.48785, 60.55095], [12.48785, 60.550612], [12.488194, 60.550528], [12.488194, 60.550232], [12.488279, 60.550232], [12.488279, 60.55019], [12.489223, 60.55019], [12.489223, 60.550148], [12.489481, 60.550148], [12.489481, 60.55019], [12.489653, 60.550232], [12.489653, 60.550654], [12.489996, 60.550739], [12.489996, 60.550823], [12.490082, 60.550823], [12.490082, 60.551034], [12.490168, 60.551034], [12.490168, 60.551076], [12.48991, 60.551161], [12.489996, 60.551245], [12.490168, 60.551203], [12.490168, 60.551245], [12.490082, 60.551245], [12.490082, 60.551456], [12.489996, 60.551456], [12.489996, 60.551498], [12.489738, 60.551498], [12.489653, 60.551583], [12.489481, 60.551583], [12.489481, 60.551541], [12.489223, 60.551456], [12.489223, 60.551372], [12.489138, 60.551372], [12.489138, 60.55133]]], [[[12.490168, 60.551203], [12.490168, 60.551076], [12.490253, 60.551076], [12.490253, 60.551034], [12.490768, 60.551034], [12.490768, 60.551119], [12.490683, 60.551119], [12.490683, 60.551161], [12.490253, 60.551161], [12.490253, 60.551203], [12.490168, 60.551203]]]]}, "properties": {"periode": "host_2024_til_host_2025", "areal_ha": 1.38, "andel_innenfor_jaktfelt": 0.0, "jaktfelt": "Husuberget", "grunnlinje": "2024-09-15", "observert": "2026-09-03", "bekreftet": "2026-09-13"}}, {"type": "Feature", "geometry": {"type": "Polygon", "coordinates": [[[12.456522, 60.550401], [12.456522, 60.550359], [12.456436, 60.550359], [12.456436, 60.550232], [12.45635, 60.550232], [12.45635, 60.550106], [12.456951, 60.550106], [12.456951, 60.550064], [12.457037, 60.550064], [12.457037, 60.550106], [12.457123, 60.550106], [12.457123, 60.550317], [12.457037, 60.550317], [12.457037, 60.550359], [12.456608, 60.550359], [12.456608, 60.550401], [12.456522, 60.550401]], [[12.456694, 60.550275], [12.456779, 60.550275], [12.456779, 60.550232], [12.456694, 60.550232], [12.456694, 60.550275]]]}, "properties": {"periode": "host_2024_til_host_2025", "areal_ha": 0.11, "andel_innenfor_jaktfelt": 1.0, "jaktfelt": "Husuberget", "grunnlinje": "2024-09-15", "observert": "2026-09-03", "bekreftet": "2026-09-13"}}, {"type": "Feature", "geometry": {"type": "Polygon", "coordinates": [[[12.40571, 60.548122], [12.40571, 60.547996], [12.405882, 60.547996], [12.405882, 60.547954], [12.406054, 60.547911], [12.405968, 60.54808], [12.405882, 60.54808], [12.405882, 60.548122], [12.40571, 60.548122]]]}, "properties": {"periode": "host_2024_til_host_2025", "areal_ha": 0.02, "andel_innenfor_jaktfelt": 0.0, "jaktfelt": "Husuberget", "grunnlinje": "2024-09-15", "observert": "2026-09-03", "bekreftet": "2026-09-13"}}, {"type": "Feature", "geometry": {"type": "Polygon", "coordinates": [[[12.404766, 60.547954], [12.404766, 60.547911], [12.405195, 60.547869], [12.405367, 60.547743], [12.405539, 60.547743], [12.405281, 60.547911], [12.405109, 60.547911], [12.405109, 60.547954], [12.404766, 60.547954]]]}, "properties": {"periode": "host_2024_til_host_2025", "areal_ha": 0.03, "andel_innenfor_jaktfelt": 0.0, "jaktfelt": "Husuberget", "grunnlinje": "2024-09-15", "observert": "2026-09-03", "bekreftet": "2026-09-13"}}, {"type": "Feature", "geometry": {"type": "Polygon", "coordinates": [[[12.393436, 60.546772], [12.393436, 60.546687], [12.393866, 60.546687], [12.393866, 60.546772], [12.393436, 60.546772]]]}, "properties": {"periode": "host_2024_til_host_2025", "areal_ha": 0.02, "andel_innenfor_jaktfelt": 1.0, "jaktfelt": "Husuberget", "grunnlinje": "2024-09-15", "observert": "2026-09-03", "bekreftet": "2026-09-13"}}, {"type": "Feature", "geometry": {"type": "Polygon", "coordinates": [[[12.392921, 60.546814], [12.392836, 60.546561], [12.39275, 60.546561], [12.39275, 60.546519], [12.392578, 60.546519], [12.392406, 60.546392], [12.392321, 60.546392], [12.392321, 60.546434], [12.392149, 60.546434], [12.392149, 60.546392], [12.392063, 60.546392], [12.392149, 60.546308], [12.392492, 60.546308], [12.392492, 60.54635], [12.392578, 60.54635], [12.392578, 60.546392], [12.392921, 60.546519], [12.392921, 60.546687], [12.393265, 60.546687], [12.393265, 60.546772], [12.393007, 60.546772], [12.393007, 60.546814], [12.392921, 60.546814]]]}, "properties": {"periode": "host_2024_til_host_2025", "areal_ha": 0.08, "andel_innenfor_jaktfelt": 1.0, "jaktfelt": "Husuberget", "grunnlinje": "2024-09-15", "observert": "2026-09-03", "bekreftet": "2026-09-13"}}, {"type": "Feature", "geometry": {"type": "Polygon", "coordinates": [[[12.394724, 60.546139], [12.394638, 60.546054], [12.394724, 60.546054], [12.39481, 60.54597], [12.394981, 60.54597], [12.394981, 60.545928], [12.395067, 60.545928], [12.395067, 60.545801], [12.395325, 60.545801], [12.395325, 60.545759], [12.395496, 60.545759], [12.395496, 60.545801], [12.395668, 60.545801], [12.395668, 60.545759], [12.395754, 60.545759], [12.395754, 60.545801], [12.39584, 60.545801], [12.395754, 60.545886], [12.395668, 60.545886], [12.395668, 60.545843], [12.395411, 60.545843], [12.395325, 60.546139], [12.394724, 60.546139]]]}, "properties": {"periode": "host_2024_til_host_2025", "areal_ha": 0.12, "andel_innenfor_jaktfelt": 1.0, "jaktfelt": "Husuberget", "grunnlinje": "2024-09-15", "observert": "2026-09-03", "bekreftet": "2026-09-13"}}, {"type": "Feature", "geometry": {"type": "Polygon", "coordinates": [[[12.392664, 60.545801], [12.392664, 60.545759], [12.39275, 60.545759], [12.39275, 60.545675], [12.392836, 60.545675], [12.392921, 60.54559], [12.393179, 60.54559], [12.393179, 60.545675], [12.393093, 60.545675], [12.392921, 60.545801], [12.392664, 60.545801]]]}, "properties": {"periode": "host_2024_til_host_2025", "areal_ha": 0.04, "andel_innenfor_jaktfelt": 0.27, "jaktfelt": "Husuberget", "grunnlinje": "2024-09-15", "observert": "2026-09-03", "bekreftet": "2026-09-13"}}, {"type": "Feature", "geometry": {"type": "MultiPolygon", "coordinates": [[[[12.390604, 60.54673], [12.390604, 60.546687], [12.390518, 60.546687], [12.390518, 60.546603], [12.39069, 60.546603], [12.39069, 60.546687], [12.390776, 60.546687], [12.390776, 60.54673], [12.390604, 60.54673]]], [[[12.39069, 60.546603], [12.39069, 60.546561], [12.390862, 60.546519], [12.390862, 60.546392], [12.390947, 60.546392], [12.390947, 60.546308], [12.390862, 60.546308], [12.390862, 60.546139], [12.390776, 60.546139], [12.390776, 60.54597], [12.39069, 60.54597], [12.39069, 60.545928], [12.390776, 60.545928], [12.390776, 60.545843], [12.390862, 60.545843], [12.390947, 60.545759], [12.391119, 60.545759], [12.391119, 60.545675], [12.391291, 60.545632], [12.391291, 60.545548], [12.391205, 60.545548], [12.391205, 60.545506], [12.391033, 60.545506], [12.391033, 60.545421], [12.391119, 60.545421], [12.391119, 60.545379], [12.391376, 60.545379], [12.391376, 60.545421], [12.391462, 60.545421], [12.391462, 60.545632], [12.391548, 60.545632], [12.391548, 60.545675], [12.391806, 60.545675], [12.391891, 60.54559], [12.391977, 60.54559], [12.392063, 60.545675], [12.392492, 60.545675], [12.392492, 60.545717], [12.392578, 60.545717], [12.392578, 60.545759], [12.392492, 60.545759], [12.392492, 60.545886], [12.392578, 60.545886], [12.392492, 60.54597], [12.39172, 60.54597], [12.39172, 60.545886], [12.391548, 60.545886], [12.391548, 60.545801], [12.391462, 60.545801], [12.391462, 60.545759], [12.391205, 60.545759], [12.391205, 60.545801], [12.391119, 60.545801], [12.391205, 60.546181], [12.391376, 60.546181], [12.391376, 60.546265], [12.391462, 60.546265], [12.391462, 60.546308], [12.391205, 60.546308], [12.391205, 60.546434], [12.391119, 60.546434], [12.391119, 60.546476], [12.390947, 60.546476], [12.390947, 60.546519], [12.39069, 60.546603]]]]}, "properties": {"periode": "host_2024_til_host_2025", "areal_ha": 0.44, "andel_innenfor_jaktfelt": 0.91, "jaktfelt": "Husuberget", "grunnlinje": "2024-09-15", "observert": "2026-09-03", "bekreftet": "2026-09-13"}}, {"type": "Feature", "geometry": {"type": "Polygon", "coordinates": [[[12.393436, 60.545632], [12.393436, 60.54559], [12.393522, 60.54559], [12.393522, 60.545506], [12.393608, 60.545506], [12.393608, 60.545421], [12.393436, 60.545379], [12.393436, 60.545252], [12.393522, 60.545252], [12.393522, 60.545337], [12.393608, 60.545337], [12.393866, 60.545506], [12.39378, 60.545506], [12.39378, 60.545548], [12.393608, 60.545548], [12.393608, 60.54559], [12.393436, 60.545632]]]}, "properties": {"periode": "host_2024_til_host_2025", "areal_ha": 0.04, "andel_innenfor_jaktfelt": 0.65, "jaktfelt": "Husuberget", "grunnlinje": "2024-09-15", "observert": "2026-09-03", "bekreftet": "2026-09-13"}}, {"type": "Feature", "geometry": {"type": "MultiPolygon", "coordinates": [[[[12.394037, 60.545041], [12.394037, 60.544999], [12.39481, 60.545041], [12.39481, 60.545084], [12.394209, 60.545084], [12.394209, 60.545041], [12.394037, 60.545041]]], [[[12.394037, 60.545041], [12.394037, 60.545084], [12.393951, 60.545084], [12.393951, 60.545041], [12.394037, 60.545041]]], [[[12.39481, 60.545084], [12.394896, 60.545084], [12.394896, 60.545295], [12.39481, 60.545295], [12.39481, 60.545252], [12.394724, 60.545252], [12.39481, 60.545084]]]]}, "properties": {"periode": "host_2024_til_host_2025", "areal_ha": 0.04, "andel_innenfor_jaktfelt": 0.96, "jaktfelt": "Husuberget", "grunnlinje": "2024-09-15", "observert": "2026-09-03", "bekreftet": "2026-09-13"}}, {"type": "Feature", "geometry": {"type": "Polygon", "coordinates": [[[12.394295, 60.544915], [12.394295, 60.54483], [12.394381, 60.54483], [12.394381, 60.544788], [12.394638, 60.544788], [12.394638, 60.544915], [12.394295, 60.544915]]]}, "properties": {"periode": "host_2024_til_host_2025", "areal_ha": 0.02, "andel_innenfor_jaktfelt": 1.0, "jaktfelt": "Husuberget", "grunnlinje": "2024-09-15", "observert": "2026-09-03", "bekreftet": "2026-09-13"}}, {"type": "Feature", "geometry": {"type": "Polygon", "coordinates": [[[12.393866, 60.544704], [12.394037, 60.544535], [12.394381, 60.544662], [12.394381, 60.544704], [12.393866, 60.544704]]]}, "properties": {"periode": "host_2024_til_host_2025", "areal_ha": 0.03, "andel_innenfor_jaktfelt": 0.78, "jaktfelt": "Husuberget", "grunnlinje": "2024-09-15", "observert": "2026-09-03", "bekreftet": "2026-09-13"}}, {"type": "Feature", "geometry": {"type": "Polygon", "coordinates": [[[12.395325, 60.544662], [12.395153, 60.544493], [12.395926, 60.544493], [12.395926, 60.544535], [12.396011, 60.544535], [12.39584, 60.544662], [12.395325, 60.544662]]]}, "properties": {"periode": "host_2024_til_host_2025", "areal_ha": 0.07, "andel_innenfor_jaktfelt": 1.0, "jaktfelt": "Husuberget", "grunnlinje": "2024-09-15", "observert": "2026-09-03", "bekreftet": "2026-09-13"}}, {"type": "Feature", "geometry": {"type": "MultiPolygon", "coordinates": [[[[12.396612, 60.543986], [12.396441, 60.543986], [12.396441, 60.544028], [12.396355, 60.544028], [12.396269, 60.543944], [12.396612, 60.543944], [12.396612, 60.543986]]], [[[12.396612, 60.543986], [12.396784, 60.544028], [12.396784, 60.544071], [12.396698, 60.544071], [12.396612, 60.543986]]], [[[12.396612, 60.543944], [12.396612, 60.543902], [12.396784, 60.543902], [12.396784, 60.543944], [12.396612, 60.543944]]], [[[12.396784, 60.543944], [12.39687, 60.543944], [12.39687, 60.543902], [12.396955, 60.543902], [12.39687, 60.543986], [12.396784, 60.543986], [12.396784, 60.543944]]]]}, "properties": {"periode": "host_2024_til_host_2025", "areal_ha": 0.02, "andel_innenfor_jaktfelt": 1.0, "jaktfelt": "Husuberget", "grunnlinje": "2024-09-15", "observert": "2026-09-03", "bekreftet": "2026-09-13"}}, {"type": "Feature", "geometry": {"type": "MultiPolygon", "coordinates": [[[[12.395582, 60.543522], [12.395582, 60.54348], [12.39584, 60.543395], [12.39584, 60.543438], [12.396011, 60.543438], [12.396183, 60.543564], [12.396526, 60.543564], [12.396526, 60.543691], [12.396355, 60.543691], [12.396355, 60.543649], [12.396269, 60.543649], [12.396097, 60.543522], [12.395582, 60.543522]]], [[[12.395582, 60.543522], [12.395496, 60.543606], [12.395325, 60.543606], [12.395325, 60.543564], [12.395411, 60.543564], [12.395411, 60.543522], [12.395582, 60.543522]]], [[[12.396526, 60.543691], [12.396612, 60.543691], [12.396612, 60.543733], [12.39687, 60.543733], [12.39687, 60.543775], [12.396269, 60.543775], [12.396269, 60.543691], [12.396355, 60.543691], [12.396355, 60.543733], [12.396526, 60.543733], [12.396526, 60.543691]]]]}, "properties": {"periode": "host_2024_til_host_2025", "areal_ha": 0.07, "andel_innenfor_jaktfelt": 0.99, "jaktfelt": "Husuberget", "grunnlinje": "2024-09-15", "observert": "2026-09-03", "bekreftet": "2026-09-13"}}]}